Date,Time (est),Wind (mph),Vis. (mi.),Weather,Sky Cond.,Temperature (ºF),Relative Humidity,Wind Chill (°F),Heat Index (°F),Pressure,Precipitation (in),Air,Dwpt,6 hour,altimeter (in),sea level (mb),1 hr,Scraped Time,Datetime
10,00:54,"NW
        5",10.0,Fair,CLR,39.9,19.0,46.9,39.0,43%,37.0,,30.37,1028.3,,,,2024-11-10 09:19:15,1900-01-10 00:54:00
10,01:54,"NW
        6",10.0,Fair,CLR,39.0,19.9,,,46%,35.0,,30.37,1028.4,,,,2024-11-10 09:19:15,1900-01-10 01:54:00
10,03:54,"W
        9",10.0,Fair,CLR,39.0,19.9,,,46%,33.0,,30.36,1028.1,,,,2024-11-10 09:19:15,1900-01-10 03:54:00
10,04:54,"W
        6",10.0,Fair,CLR,37.9,19.0,,,46%,34.0,,30.36,1027.9,,,,2024-11-11 09:23:01,1900-01-10 04:54:00
10,05:54,"W
        5",10.0,A Few Clouds,FEW050 FEW250,39.0,19.9,,,46%,36.0,,30.35,1027.7,,,,2024-11-11 09:23:01,1900-01-10 05:54:00
10,06:54,Calm,10.0,A Few Clouds,FEW050 FEW250,37.0,21.9,39.9,37.0,54%,,,30.36,1027.9,,,,2024-11-11 09:23:01,1900-01-10 06:54:00
10,07:54,"SW
        5",10.0,Partly Cloudy,FEW050 FEW100 SCT250,43.0,21.0,,,42%,41.0,,30.34,1027.2,,,,2024-11-11 09:23:01,1900-01-10 07:54:00
10,08:54,"SW
        9",10.0,Partly Cloudy,FEW050 FEW110 SCT250,44.1,19.0,,,37%,40.0,,30.32,1026.6,,,,2024-11-11 09:23:01,1900-01-10 08:54:00
10,09:54,"SW
        10",10.0,Partly Cloudy,FEW050 FEW110 SCT250,48.0,17.1,,,29%,44.0,,30.3,1025.9,,,,2024-11-11 09:23:01,1900-01-10 09:54:00
10,10:54,"SW
        16",10.0,Partly Cloudy,FEW050 SCT110 SCT250,52.0,19.9,,,28%,,,30.26,1024.7,,,,2024-11-11 09:23:01,1900-01-10 10:54:00
10,11:54,"SW
        14",10.0,Mostly Cloudy,FEW050 BKN130 BKN230,54.0,21.0,,,28%,,,30.22,1023.2,,,,2024-11-11 09:23:01,1900-01-10 11:54:00
10,12:54,"SW
        13",10.0,Mostly Cloudy,FEW050 BKN130 BKN230,55.0,26.1,55.0,36.0,33%,,,30.18,1021.8,,,,2024-11-11 09:23:01,1900-01-10 12:54:00
10,13:54,"W
        17
        G 28",10.0,Mostly Cloudy,FEW050 BKN130 BKN220,57.0,30.0,,,36%,,,30.14,1020.4,,,,2024-11-11 09:23:01,1900-01-10 13:54:00
10,14:54,"SW
        16",10.0,Mostly Cloudy,FEW050 SCT130 BKN160 BKN220,57.0,30.9,,,37%,,,30.1,1019.2,,,,2024-11-11 09:23:01,1900-01-10 14:54:00
10,15:54,"SW
        16",10.0,Mostly Cloudy,SCT130 BKN160 BKN200,57.0,34.0,,,42%,,,30.07,1018.2,,,,2024-11-11 09:23:01,1900-01-10 15:54:00
10,16:54,"SW
        12",10.0,Overcast,FEW060 SCT120 OVC180,55.0,35.1,,,47%,,,30.05,1017.5,,,,2024-11-11 09:23:01,1900-01-10 16:54:00
10,17:54,"SW
        13",10.0,Overcast,FEW060 SCT130 OVC180,55.0,37.0,,,51%,,,30.04,1017.2,,,,2024-11-11 09:23:01,1900-01-10 17:54:00
10,18:54,"SW
        13
        G 22",10.0,Overcast,FEW060 BKN120 OVC180,55.0,37.9,57.9,54.0,53%,,,30.02,1016.4,,,,2024-11-11 09:23:01,1900-01-10 18:54:00
10,19:54,"SW
        13",10.0,Overcast,FEW065 BKN090 OVC120,55.0,39.0,,,55%,,,30.0,1015.7,,,,2024-11-11 09:23:01,1900-01-10 19:54:00
10,20:54,"SW
        16
        G 24",10.0,Light Rain,SCT025 SCT080 OVC095,54.0,44.1,,,69%,,,29.97,1014.7,,,,2024-11-11 09:23:01,1900-01-10 20:54:00
10,21:54,"SW
        14",10.0,Light Rain,FEW030 SCT075 OVC090,53.1,45.0,,,74%,,,29.95,1014.0,,,,2024-11-11 09:23:01,1900-01-10 21:54:00
10,22:54,"SW
        7",10.0,Overcast,FEW030 SCT080 OVC100,53.1,44.1,,,72%,,,29.93,1013.3,0.01,,,2024-11-11 09:23:01,1900-01-10 22:54:00
10,23:54,"S
        6",10.0,Light Rain,OVC023,52.0,46.0,,,80%,,,29.88,1011.9,,,,2024-11-11 09:23:01,1900-01-10 23:54:00
11,00:54,"S
        7",9.0,Light Rain,FEW019 BKN031 OVC041,52.0,48.9,55.0,52.0,89%,,,29.82,1009.7,0.01,,0.02,2024-11-11 09:23:01,1900-01-11 00:54:00
11,01:54,"S
        9",8.0,Light Rain,OVC010,55.0,53.1,,,93%,,,29.76,1007.7,0.04,,,2024-11-11 09:23:01,1900-01-11 01:54:00
11,02:54,"SW
        13",10.0,Light Rain,SCT012 BKN016 OVC023,57.0,55.0,,,93%,,,29.73,1006.6,0.02,,,2024-11-11 09:23:01,1900-01-11 02:54:00
11,03:54,"SW
        15",6.0,Light Rain Fog/Mist,BKN012 OVC017,57.9,55.9,,,93%,,,29.7,1005.5,0.01,0.07,,2024-11-11 09:23:01,1900-01-11 03:54:00
11,04:54,"SW
        18
        G 26",10.0,Overcast,OVC014,57.9,55.0,,,90%,,,29.67,1004.6,,,,2024-11-12 09:21:40,1900-01-11 04:54:00
11,05:54,"SW
        16",10.0,Overcast,OVC015,57.9,55.0,,,90%,,,29.64,1003.7,,,,2024-11-12 09:21:40,1900-01-11 05:54:00
11,06:54,"SW
        13
        G 23",10.0,Overcast,OVC016,59.0,54.0,59.0,52.0,83%,,,29.67,1004.5,,,0.07,2024-11-12 09:21:40,1900-01-11 06:54:00
11,07:54,"SW
        16",10.0,Mostly Cloudy,FEW022 SCT028 BKN250,59.0,52.0,,,78%,,,29.67,1004.7,,,,2024-11-12 09:21:40,1900-01-11 07:54:00
11,08:54,"SW
        16
        G 22",10.0,Mostly Cloudy,FEW020 FEW035 BKN250,60.1,52.0,,,75%,,,29.66,1004.2,,,,2024-11-12 09:21:40,1900-01-11 08:54:00
11,09:54,"SW
        15",10.0,Partly Cloudy,FEW025 FEW032 SCT250,63.0,51.1,,,65%,,,29.65,1004.0,,,,2024-11-12 09:21:40,1900-01-11 09:54:00
11,10:54,"SW
        16",10.0,Partly Cloudy,FEW028 SCT038 SCT250,63.0,51.1,,,65%,,,29.64,1003.6,,,,2024-11-12 09:21:40,1900-01-11 10:54:00
11,11:54,"W
        23
        G 31",10.0,Partly Cloudy and Breezy,SCT039 SCT047,64.0,48.0,,,56%,,,29.61,1002.6,,,,2024-11-12 09:21:40,1900-01-11 11:54:00
11,12:54,"W
        16
        G 24",10.0,Partly Cloudy,SCT035 SCT045,66.9,46.0,66.9,59.0,47%,,,29.6,1002.2,,,,2024-11-12 09:21:40,1900-01-11 12:54:00
11,13:54,"SW
        16
        G 29",10.0,Partly Cloudy,FEW034 SCT055,66.9,44.1,,,44%,,,29.58,1001.6,,,,2024-11-12 09:21:40,1900-01-11 13:54:00
11,14:54,"W
        16
        G 24",10.0,Partly Cloudy,FEW038 SCT060,66.9,42.1,,,41%,,,29.58,1001.6,,,,2024-11-12 09:21:40,1900-01-11 14:54:00
11,15:54,"W
        17
        G 25",10.0,Partly Cloudy,FEW037 SCT060,64.9,39.9,,,40%,,,29.59,1001.9,,,,2024-11-12 09:21:40,1900-01-11 15:54:00
11,16:54,"NW
        8",10.0,Partly Cloudy,SCT060,63.0,42.1,,,47%,,,29.6,1002.4,,,,2024-11-12 09:21:40,1900-01-11 16:54:00
11,17:54,"W
        6",10.0,A Few Clouds,FEW060,62.1,42.1,,,48%,,,29.62,1003.0,,,,2024-11-12 09:21:40,1900-01-11 17:54:00
11,18:54,"W
        9
        G 20",10.0,Mostly Cloudy,BKN060,62.1,43.0,68.0,61.0,50%,,,29.63,1003.3,,,,2024-11-12 09:21:40,1900-01-11 18:54:00
11,19:54,"W
        8",10.0,Overcast,OVC060,62.1,43.0,,,50%,,,29.64,1003.6,,,,2024-11-12 09:21:40,1900-01-11 19:54:00
11,20:54,"SW
        6",10.0,Overcast,OVC060,59.0,45.0,,,60%,,,29.64,1003.7,,,,2024-11-12 09:21:40,1900-01-11 20:54:00
11,21:54,"SW
        8",10.0,Overcast,OVC060,59.0,44.1,,,58%,,,29.64,1003.7,,,,2024-11-12 09:21:40,1900-01-11 21:54:00
11,22:54,"SW
        8",10.0,Overcast,OVC060,60.1,43.0,,,53%,,,29.62,1002.8,,,,2024-11-12 09:21:40,1900-01-11 22:54:00
11,23:54,"SW
        9
        G 20",10.0,Partly Cloudy,SCT070,57.9,43.0,,,58%,,,29.62,1002.9,,,,2024-11-12 09:21:40,1900-01-11 23:54:00
12,00:54,"W
        12",10.0,A Few Clouds,FEW070,57.9,42.1,62.1,55.0,56%,,,29.62,1002.9,,,,2024-11-12 09:21:40,1900-01-12 00:54:00
12,01:54,"W
        10",10.0,Fair,CLR,55.0,43.0,,,64%,,,29.63,1003.3,,,,2024-11-12 09:21:40,1900-01-12 01:54:00
12,02:54,"W
        12
        G 23",10.0,Fair,CLR,55.0,39.9,,,57%,,,29.64,1003.6,,,,2024-11-12 09:21:40,1900-01-12 02:54:00
12,03:54,"W
        15
        G 22",10.0,Fair,CLR,54.0,37.9,,,55%,,,29.65,1003.9,,,,2024-11-12 09:21:40,1900-01-12 03:54:00
12,04:54,"W
        14",10.0,Fair,CLR,53.1,39.0,,,59%,,,29.67,1004.5,,,,2024-11-13 09:21:40,1900-01-12 04:54:00
12,05:54,"W
        12
        G 23",10.0,A Few Clouds,FEW070,52.0,37.9,,,59%,,,29.69,1005.3,,,,2024-11-13 09:21:40,1900-01-12 05:54:00
12,06:54,"W
        10
        G 22",10.0,A Few Clouds,FEW060,51.1,37.9,57.9,51.1,61%,,,29.72,1006.4,,,,2024-11-13 09:21:40,1900-01-12 06:54:00
12,07:54,"NW
        23
        G 32",10.0,Partly Cloudy and Breezy,SCT035 SCT060,52.0,37.9,,,59%,,,29.78,1008.4,,,,2024-11-13 09:21:40,1900-01-12 07:54:00
12,08:54,"NW
        22
        G 32",10.0,A Few Clouds and Breezy,FEW036,52.0,33.1,,,49%,,,29.83,1010.0,,,,2024-11-13 09:21:40,1900-01-12 08:54:00
12,09:54,"NW
        24
        G 35",10.0,A Few Clouds and Breezy,FEW045,52.0,30.9,,,45%,,,29.86,1010.9,,,,2024-11-13 09:21:40,1900-01-12 09:54:00
12,10:54,"NW
        23
        G 38",10.0,A Few Clouds and Breezy,FEW046,52.0,30.0,,,43%,,,29.89,1012.2,,,,2024-11-13 09:21:40,1900-01-12 10:54:00
12,11:54,"NW
        25
        G 39",10.0,Partly Cloudy and Breezy,SCT049,51.1,28.9,,,43%,,,29.91,1012.9,,,,2024-11-13 09:21:40,1900-01-12 11:54:00
12,12:54,"NW
        26
        G 39",10.0,A Few Clouds and Windy,FEW048,50.0,28.0,53.1,50.0,43%,43.0,,29.94,1013.6,,,,2024-11-13 09:21:40,1900-01-12 12:54:00
12,13:54,"NW
        21
        G 37",10.0,A Few Clouds and Breezy,FEW050,50.0,28.0,,,43%,44.0,,29.96,1014.6,,,,2024-11-13 09:21:40,1900-01-12 13:54:00
12,14:54,"NW
        25
        G 38",10.0,A Few Clouds and Breezy,FEW050,46.9,27.0,,,46%,39.0,,30.01,1016.2,,,,2024-11-13 09:21:40,1900-01-12 14:54:00
12,15:54,"NW
        22
        G 30",10.0,A Few Clouds and Breezy,FEW050,45.0,27.0,,,49%,37.0,,30.07,1018.3,,,,2024-11-13 09:21:40,1900-01-12 15:54:00
12,16:54,"NW
        23
        G 33",10.0,A Few Clouds and Breezy,FEW033 FEW050,43.0,26.1,,,51%,34.0,,30.12,1020.0,,,,2024-11-13 09:21:40,1900-01-12 16:54:00
12,17:54,"NW
        20
        G 31",10.0,A Few Clouds,FEW035 FEW055,43.0,24.1,,,47%,35.0,,30.17,1021.5,,,,2024-11-13 09:21:40,1900-01-12 17:54:00
12,18:54,"NW
        16
        G 23",10.0,A Few Clouds,FEW050,42.1,23.0,52.0,42.1,47%,35.0,,30.2,1022.6,,,,2024-11-13 09:21:40,1900-01-12 18:54:00
12,19:54,"NW
        12
        G 22",10.0,A Few Clouds,FEW050,41.0,21.9,,,47%,35.0,,30.22,1023.2,,,,2024-11-13 09:21:40,1900-01-12 19:54:00
12,20:54,"NW
        16
        G 29",10.0,Fair,CLR,39.9,19.9,,,45%,32.0,,30.24,1024.0,,,,2024-11-13 09:21:40,1900-01-12 20:54:00
12,21:54,"NW
        16
        G 24",10.0,Fair,CLR,39.0,19.0,,,45%,31.0,,30.27,1024.9,,,,2024-11-13 09:21:40,1900-01-12 21:54:00
12,22:54,"NW
        12
        G 25",10.0,Fair,CLR,37.9,19.0,,,46%,31.0,,30.3,1025.9,,,,2024-11-13 09:21:40,1900-01-12 22:54:00
12,23:54,"N
        12",10.0,Fair,CLR,37.0,18.0,,,46%,30.0,,30.32,1026.6,,,,2024-11-13 09:21:40,1900-01-12 23:54:00
13,00:54,"N
        8",10.0,Fair,CLR,36.0,18.0,42.1,36.0,48%,30.0,,30.34,1027.2,,,,2024-11-13 09:21:40,1900-01-13 00:54:00
13,01:54,"N
        10",10.0,Fair,CLR,35.1,18.0,,,50%,28.0,,30.35,1027.5,,,,2024-11-13 09:21:40,1900-01-13 01:54:00
13,02:54,"N
        12",10.0,Fair,CLR,34.0,17.1,,,50%,26.0,,30.37,1028.2,,,,2024-11-13 09:21:40,1900-01-13 02:54:00
13,03:54,"NW
        10
        G 18",10.0,Fair,CLR,33.1,17.1,,,52%,26.0,,30.39,1029.0,,,,2024-11-13 09:21:40,1900-01-13 03:54:00
13,04:54,"N
        10",10.0,A Few Clouds,FEW035,32.0,17.1,,,54%,24.0,,30.41,1029.8,,,,2024-11-14 09:22:24,1900-01-13 04:54:00
13,05:54,"NW
        10",10.0,A Few Clouds,FEW035,32.0,18.0,,,56%,24.0,,30.44,1030.7,,,,2024-11-14 09:22:24,1900-01-13 05:54:00
13,06:54,"N
        9",10.0,A Few Clouds,FEW035,33.1,18.0,36.0,32.0,54%,26.0,,30.47,1031.6,,,,2024-11-14 09:22:24,1900-01-13 06:54:00
13,07:54,"N
        12",10.0,A Few Clouds,FEW035,35.1,19.0,,,52%,28.0,,30.49,1032.4,,,,2024-11-14 09:22:24,1900-01-13 07:54:00
13,08:54,"N
        15
        G 28",10.0,A Few Clouds,FEW035,37.9,19.0,,,46%,30.0,,30.49,1032.5,,,,2024-11-14 09:22:24,1900-01-13 08:54:00
13,09:54,"N
        16
        G 25",10.0,A Few Clouds,FEW035,39.0,21.0,,,48%,31.0,,30.51,1033.1,,,,2024-11-14 09:22:24,1900-01-13 09:54:00
13,10:54,"N
        14",10.0,A Few Clouds,FEW035,41.0,18.0,,,39%,34.0,,30.51,1033.0,,,,2024-11-14 09:22:24,1900-01-13 10:54:00
13,11:54,"N
        8",10.0,A Few Clouds,FEW035,42.1,16.0,,,35%,38.0,,30.49,1032.5,,,,2024-11-14 09:22:24,1900-01-13 11:54:00
13,12:54,"N
        10",10.0,A Few Clouds,FEW035,45.0,15.1,45.0,32.0,30%,40.0,,30.48,1032.0,,,,2024-11-14 09:22:24,1900-01-13 12:54:00
13,13:54,"N
        9",10.0,A Few Clouds,FEW035,45.0,10.9,,,25%,41.0,,30.46,1031.5,,,,2024-11-14 09:22:24,1900-01-13 13:54:00
13,14:54,"N
        14
        G 21",10.0,A Few Clouds,FEW036,46.0,9.0,,,22%,40.0,,30.47,1031.6,,,,2024-11-14 09:22:24,1900-01-13 14:54:00
13,15:54,"N
        13",10.0,A Few Clouds,FEW035,44.1,7.0,,,22%,38.0,,30.47,1031.7,,,,2024-11-14 09:22:24,1900-01-13 15:54:00
13,16:54,"N
        9",10.0,Fair,CLR,39.9,12.9,,,33%,34.0,,30.47,1031.9,,,,2024-11-14 09:22:24,1900-01-13 16:54:00
13,17:54,"N
        10",10.0,Fair,CLR,41.0,8.1,,,25%,35.0,,30.48,1031.9,,,,2024-11-14 09:22:24,1900-01-13 17:54:00
13,18:54,"N
        12",10.0,Fair,CLR,39.9,8.1,46.0,39.9,27%,34.0,,30.47,1031.9,,,,2024-11-14 09:22:24,1900-01-13 18:54:00
13,19:54,"N
        13",10.0,Fair,CLR,39.0,10.0,,,30%,32.0,,30.48,1031.9,,,,2024-11-14 09:22:24,1900-01-13 19:54:00
13,20:54,"N
        10",10.0,Fair,CLR,39.0,12.9,,,34%,33.0,,30.48,1032.0,,,,2024-11-14 09:22:24,1900-01-13 20:54:00
13,21:54,"N
        12",10.0,Fair,CLR,37.9,15.1,,,39%,31.0,,30.47,1031.8,,,,2024-11-14 09:22:24,1900-01-13 21:54:00
13,22:54,"N
        10",10.0,Fair,CLR,37.0,16.0,,,42%,30.0,,30.46,1031.3,,,,2024-11-14 09:22:24,1900-01-13 22:54:00
13,23:54,"N
        9",10.0,Fair,CLR,35.1,15.1,,,44%,29.0,,30.46,1031.2,,,,2024-11-14 09:22:24,1900-01-13 23:54:00
14,00:54,"N
        10",10.0,Fair,CLR,35.1,15.1,39.9,35.1,44%,28.0,,30.45,1031.0,,,,2024-11-14 09:22:24,1900-01-14 00:54:00
14,01:54,"N
        9",10.0,Fair,CLR,34.0,16.0,,,48%,27.0,,30.44,1030.8,,,,2024-11-14 09:22:24,1900-01-14 01:54:00
14,02:54,"N
        12",10.0,Fair,CLR,33.1,16.0,,,49%,25.0,,30.41,1029.6,,,,2024-11-14 09:22:24,1900-01-14 02:54:00
14,03:54,"N
        10",10.0,Fair,CLR,32.0,16.0,,,52%,24.0,,30.38,1028.8,,,,2024-11-14 09:22:24,1900-01-14 03:54:00
14,04:54,"NW
        9",10.0,Fair,CLR,32.0,16.0,,,52%,25.0,,30.39,1028.9,,,,2024-11-15 09:22:32,1900-01-14 04:54:00
14,05:54,"N
        10",10.0,Fair,CLR,32.0,16.0,,,52%,24.0,,30.39,1029.0,,,,2024-11-15 09:22:32,1900-01-14 05:54:00
14,06:54,"N
        9",10.0,A Few Clouds,FEW035,32.0,16.0,35.1,30.9,52%,25.0,,30.39,1029.1,,,,2024-11-15 09:22:32,1900-01-14 06:54:00
14,07:54,"NW
        9",10.0,A Few Clouds,FEW035 FEW250,35.1,17.1,,,48%,29.0,,30.39,1029.1,,,,2024-11-15 09:22:32,1900-01-14 07:54:00
14,08:54,"N
        10",10.0,A Few Clouds,FEW035 FEW250,37.9,19.0,,,46%,32.0,,30.38,1028.7,,,,2024-11-15 09:22:32,1900-01-14 08:54:00
14,09:54,"N
        12",10.0,A Few Clouds,FEW035 FEW250,39.9,21.0,,,47%,34.0,,30.36,1028.1,,,,2024-11-15 09:22:32,1900-01-14 09:54:00
14,10:54,"N
        13
        G 21",10.0,A Few Clouds,FEW035 FEW250,42.1,21.9,,,45%,36.0,,30.33,1027.0,,,,2024-11-15 09:22:32,1900-01-14 10:54:00
14,11:54,"N
        12",10.0,A Few Clouds,FEW035 FEW250,43.0,21.9,,,43%,37.0,,30.29,1025.6,,,,2024-11-15 09:22:32,1900-01-14 11:54:00
14,12:54,"NE
        12",10.0,A Few Clouds,FEW035 FEW250,44.1,18.0,44.1,32.0,35%,39.0,,30.26,1024.7,,,,2024-11-15 09:22:32,1900-01-14 12:54:00
14,13:54,"NE
        9",10.0,A Few Clouds,FEW040 FEW250,44.1,16.0,,,32%,40.0,,30.23,1023.5,,,,2024-11-15 09:22:32,1900-01-14 13:54:00
14,14:54,"NE
        7",10.0,Partly Cloudy,FEW040 FEW160 SCT250,43.0,12.9,,,29%,39.0,,30.21,1022.9,,,,2024-11-15 09:22:32,1900-01-14 14:54:00
14,15:54,"N
        7",10.0,Partly Cloudy,FEW040 FEW160 SCT250,41.0,8.1,,,25%,37.0,,30.19,1022.3,,,,2024-11-15 09:22:32,1900-01-14 15:54:00
14,16:54,"N
        3",10.0,Partly Cloudy,FEW160 SCT250,41.0,8.1,,,25%,,,30.17,1021.6,,,,2024-11-15 09:22:32,1900-01-14 16:54:00
14,17:54,"NW
        6",10.0,Partly Cloudy,SCT250,41.0,3.9,,,21%,38.0,,30.16,1021.2,,,,2024-11-15 09:22:32,1900-01-14 17:54:00
14,18:54,"NW
        6",10.0,Partly Cloudy,SCT250,41.0,3.0,44.1,39.0,20%,38.0,,30.14,1020.6,,,,2024-11-15 09:22:32,1900-01-14 18:54:00
14,19:54,"NW
        5",10.0,A Few Clouds,FEW250,39.9,3.9,,,22%,37.0,,30.12,1020.0,,,,2024-11-15 09:22:32,1900-01-14 19:54:00
14,20:54,"NW
        8",10.0,A Few Clouds,FEW250,39.9,5.0,,,23%,35.0,,30.1,1019.1,,,,2024-11-15 09:22:32,1900-01-14 20:54:00
14,21:54,"NW
        7",10.0,A Few Clouds,FEW250,37.9,7.0,,,27%,33.0,,30.08,1018.5,,,,2024-11-15 09:22:32,1900-01-14 21:54:00
14,22:54,"NW
        8",10.0,Partly Cloudy,SCT250,37.0,8.1,,,30%,32.0,,30.05,1017.7,,,,2024-11-15 09:22:32,1900-01-14 22:54:00
14,23:54,"NW
        8",10.0,Mostly Cloudy,BKN250,37.0,7.0,,,28%,32.0,,30.03,1016.9,,,,2024-11-15 09:22:32,1900-01-14 23:54:00
15,00:54,"N
        9",10.0,Mostly Cloudy,BKN250,36.0,10.9,43.0,36.0,35%,30.0,,30.01,1016.2,,,,2024-11-15 09:22:32,1900-01-15 00:54:00
15,01:54,"NW
        8",10.0,Mostly Cloudy,BKN250,35.1,12.0,,,38%,29.0,,30.0,1015.7,,,,2024-11-15 09:22:32,1900-01-15 01:54:00
15,02:54,"NW
        9",10.0,Mostly Cloudy,BKN250,35.1,10.9,,,37%,29.0,,29.97,1014.9,,,,2024-11-15 09:22:32,1900-01-15 02:54:00
15,03:54,"NW
        7",10.0,Mostly Cloudy,BKN250,35.1,12.0,,,38%,30.0,,29.96,1014.3,,,,2024-11-15 09:22:32,1900-01-15 03:54:00
15,04:54,"NW
        6",10.0,Mostly Cloudy,BKN250,34.0,12.0,,,40%,29.0,,29.93,1013.5,,,,2024-11-16 09:20:18,1900-01-15 04:54:00
15,05:54,"W
        9",10.0,A Few Clouds,FEW220 FEW250,34.0,12.0,,,40%,27.0,,29.91,1012.8,,,,2024-11-16 09:20:18,1900-01-15 05:54:00
15,06:54,"W
        8",10.0,Partly Cloudy,FEW220 SCT250,36.0,12.0,36.0,34.0,37%,30.0,,29.9,1012.3,,,,2024-11-16 09:20:18,1900-01-15 06:54:00
15,07:54,"W
        7",10.0,A Few Clouds,FEW220 FEW250,39.9,14.0,,,35%,36.0,,29.87,1011.4,,,,2024-11-16 09:20:18,1900-01-15 07:54:00
15,08:54,"NW
        13",10.0,A Few Clouds,FEW220,42.1,12.0,,,29%,36.0,,29.84,1010.4,,,,2024-11-16 09:20:18,1900-01-15 08:54:00
15,09:54,"W
        13",10.0,A Few Clouds,FEW220,45.0,10.0,,,24%,39.0,,29.82,1009.6,,,,2024-11-16 09:20:18,1900-01-15 09:54:00
15,10:54,"W
        10",10.0,A Few Clouds,FEW220,50.0,9.0,,,19%,46.0,,29.78,1008.3,,,,2024-11-16 09:20:18,1900-01-15 10:54:00
15,11:54,"NW
        13",10.0,A Few Clouds,FEW120 FEW220,55.0,7.0,,,14%,,,29.73,1006.8,,,,2024-11-16 09:20:18,1900-01-15 11:54:00
15,12:54,"NW
        12",10.0,A Few Clouds,FEW120 FEW220,55.9,8.1,55.9,35.1,14%,,,29.7,1005.5,,,,2024-11-16 09:20:18,1900-01-15 12:54:00
15,13:54,"NW
        13",10.0,A Few Clouds,FEW120 FEW150,59.0,8.1,,,13%,,,29.66,1004.4,,,,2024-11-16 09:20:18,1900-01-15 13:54:00
15,14:54,"NW
        14",10.0,A Few Clouds,FEW120,59.0,10.0,,,14%,,,29.64,1003.6,,,,2024-11-16 09:20:18,1900-01-15 14:54:00
15,15:54,"NW
        14
        G 22",10.0,A Few Clouds,FEW120,57.0,14.0,,,18%,,,29.64,1003.6,,,,2024-11-16 09:20:18,1900-01-15 15:54:00
15,16:54,"NW
        10
        G 22",10.0,A Few Clouds,FEW120,54.0,15.1,,,21%,,,29.63,1003.4,,,,2024-11-16 09:20:18,1900-01-15 16:54:00
15,17:54,"NW
        10
        G 20",10.0,A Few Clouds,FEW120,53.1,14.0,,,21%,,,29.64,1003.7,,,,2024-11-16 09:20:18,1900-01-15 17:54:00
15,18:54,"NW
        10
        G 21",10.0,A Few Clouds,FEW080,52.0,15.1,60.1,52.0,23%,,,29.65,1003.9,,,,2024-11-16 09:20:18,1900-01-15 18:54:00
15,19:54,"NW
        9",10.0,A Few Clouds,FEW080,51.1,17.1,,,26%,,,29.65,1004.0,,,,2024-11-16 09:20:18,1900-01-15 19:54:00
15,20:54,"NW
        12
        G 21",10.0,A Few Clouds,FEW080,50.0,19.0,,,29%,46.0,,29.66,1004.3,,,,2024-11-16 09:20:18,1900-01-15 20:54:00
15,21:54,"NW
        10
        G 20",10.0,Partly Cloudy,SCT044 SCT080,48.9,21.0,,,33%,45.0,,29.66,1004.3,,,,2024-11-16 09:20:18,1900-01-15 21:54:00
15,22:54,"NW
        12",10.0,Mostly Cloudy,BKN047,48.0,19.9,,,33%,44.0,,29.66,1004.4,,,,2024-11-16 09:20:18,1900-01-15 22:54:00
15,23:54,"NW
        10",10.0,A Few Clouds,FEW050,46.9,19.0,,,33%,43.0,,29.65,1004.1,,,,2024-11-16 09:20:18,1900-01-15 23:54:00
16,00:54,"NW
        8",10.0,A Few Clouds,FEW050,46.0,19.0,52.0,46.0,34%,42.0,,29.66,1004.3,,,,2024-11-16 09:20:18,1900-01-16 00:54:00
16,01:54,"NW
        13",10.0,A Few Clouds,FEW050,46.9,18.0,,,31%,42.0,,29.66,1004.3,,,,2024-11-16 09:20:18,1900-01-16 01:54:00
16,02:54,"NW
        14
        G 22",10.0,Mostly Cloudy,FEW050 BKN240,46.9,18.0,,,31%,42.0,,29.66,1004.3,,,,2024-11-16 09:20:18,1900-01-16 02:54:00
16,04:54,"NW
        9",10.0,Partly Cloudy,FEW045 SCT250,46.0,19.0,,,34%,42.0,,29.67,1004.7,,,,2024-11-17 09:21:38,1900-01-16 04:54:00
16,05:54,"NW
        8",10.0,A Few Clouds,FEW045 FEW250,45.0,19.0,,,35%,41.0,,29.68,1005.0,,,,2024-11-17 09:21:38,1900-01-16 05:54:00
16,06:54,"NW
        10",10.0,A Few Clouds,FEW050 FEW250,46.0,18.0,46.9,45.0,33%,42.0,,29.7,1005.6,,,,2024-11-17 09:21:38,1900-01-16 06:54:00
16,07:54,"NW
        10",10.0,A Few Clouds,FEW050 FEW250,48.0,18.0,,,30%,44.0,,29.71,1006.1,,,,2024-11-17 09:21:38,1900-01-16 07:54:00
16,08:54,"NW
        10
        G 20",10.0,A Few Clouds,FEW050 FEW250,51.1,19.0,,,28%,,,29.73,1006.6,,,,2024-11-17 09:21:38,1900-01-16 08:54:00
16,09:54,"NW
        16
        G 22",10.0,A Few Clouds,FEW060 FEW250,53.1,21.0,,,28%,,,29.74,1007.0,,,,2024-11-17 09:21:38,1900-01-16 09:54:00
16,10:54,"NW
        13",10.0,A Few Clouds,FEW045 FEW060 FEW250,55.9,24.1,,,29%,,,29.73,1006.6,,,,2024-11-17 09:21:38,1900-01-16 10:54:00
16,11:54,"NW
        13",10.0,Partly Cloudy,FEW045 SCT060 SCT250,59.0,28.0,,,31%,,,29.72,1006.2,,,,2024-11-17 09:21:38,1900-01-16 11:54:00
16,12:54,"W
        14
        G 23",10.0,Partly Cloudy,FEW045 SCT060 SCT250,61.0,30.0,61.0,46.0,31%,,,29.7,1005.6,,,,2024-11-17 09:21:38,1900-01-16 12:54:00
16,13:54,"NW
        16
        G 22",10.0,Partly Cloudy,FEW050 FEW080 SCT100 SCT250,62.1,30.9,,,31%,,,29.7,1005.8,,,,2024-11-17 09:21:38,1900-01-16 13:54:00
16,14:54,"NW
        14
        G 22",10.0,Partly Cloudy,FEW055 SCT120 SCT200 SCT220,61.0,30.9,,,32%,,,29.73,1006.6,,,,2024-11-17 09:21:38,1900-01-16 14:54:00
16,15:54,"N
        15",10.0,Partly Cloudy,SCT070 SCT080,57.9,32.0,,,38%,,,29.75,1007.5,,,,2024-11-17 09:21:38,1900-01-16 15:54:00
16,16:54,"N
        8",10.0,Partly Cloudy,SCT065 SCT080,55.9,32.0,,,40%,,,29.79,1008.7,,,,2024-11-17 09:21:38,1900-01-16 16:54:00
16,17:54,"N
        13",10.0,Mostly Cloudy,BKN070,55.0,30.9,,,40%,,,29.82,1009.7,,,,2024-11-17 09:21:38,1900-01-16 17:54:00
16,18:54,"NW
        14
        G 26",10.0,Fair,CLR,54.0,30.9,62.1,54.0,42%,,,29.84,1010.4,,,,2024-11-17 09:21:38,1900-01-16 18:54:00
16,19:54,"NW
        12",10.0,Fair,CLR,53.1,30.0,,,41%,,,29.85,1010.8,,,,2024-11-17 09:21:38,1900-01-16 19:54:00
16,20:54,"NW
        12",10.0,Fair,CLR,52.0,27.0,,,38%,,,29.87,1011.4,,,,2024-11-17 09:21:38,1900-01-16 20:54:00
16,21:54,"NW
        13",10.0,Fair,CLR,51.1,23.0,,,33%,,,29.88,1011.8,,,,2024-11-17 09:21:38,1900-01-16 21:54:00
16,22:54,"NW
        9",10.0,Fair,CLR,50.0,21.0,,,32%,47.0,,29.88,1011.8,,,,2024-11-17 09:21:38,1900-01-16 22:54:00
16,23:54,"NW
        12",10.0,Fair,CLR,50.0,19.0,,,29%,46.0,,29.88,1011.8,,,,2024-11-17 09:21:38,1900-01-16 23:54:00
17,00:54,"NW
        13",10.0,Fair,CLR,48.9,18.0,54.0,48.9,29%,44.0,,29.88,1011.8,,,,2024-11-17 09:21:38,1900-01-17 00:54:00
17,01:54,"NW
        10",10.0,Fair,CLR,48.0,17.1,,,29%,44.0,,29.91,1012.6,,,,2024-11-17 09:21:38,1900-01-17 01:54:00
17,02:54,"NW
        13",10.0,Fair,CLR,48.0,17.1,,,29%,43.0,,29.91,1012.9,,,,2024-11-17 09:21:38,1900-01-17 02:54:00
17,03:54,"NW
        12",10.0,Fair,CLR,48.0,16.0,,,28%,44.0,,29.92,1013.2,,,,2024-11-17 09:21:38,1900-01-17 03:54:00
17,04:54,"S
        21
        G 28",10.0,Overcast and Breezy,FEW008 BKN014 OVC029,54.0,52.0,,,93%,,,29.99,1015.5,,,,2024-12-18 09:23:34,1900-01-17 04:54:00
17,05:54,"S
        17",7.0,Light Rain,FEW011 BKN046 OVC065,54.0,52.0,,,93%,,,29.98,1015.0,0.04,,,2024-12-18 09:23:34,1900-01-17 05:54:00
17,06:54,"SW
        18",10.0,Overcast,BKN015 BKN023 OVC075,55.0,53.1,55.0,48.9,93%,,,29.98,1015.2,0.01,,0.17,2024-12-18 09:23:34,1900-01-17 06:54:00
17,07:54,"SW
        13",10.0,Overcast,SCT015 OVC023,55.0,53.1,,,93%,,,29.98,1015.1,,,,2024-12-18 09:23:34,1900-01-17 07:54:00
17,08:54,"SW
        14
        G 28",10.0,Mostly Cloudy,BKN023 BKN040,55.0,51.1,,,87%,,,30.01,1016.0,,,,2024-12-18 09:23:34,1900-01-17 08:54:00
17,09:54,"W
        14
        G 23",10.0,Mostly Cloudy,BKN021,55.9,50.0,,,81%,,,30.03,1016.8,,,,2024-12-18 09:23:34,1900-01-17 09:54:00
17,10:54,"SW
        14
        G 25",10.0,Mostly Cloudy,BKN022 BKN095 BKN250,57.0,48.9,,,74%,,,30.01,1016.3,,,,2024-12-18 09:23:34,1900-01-17 10:54:00
17,12:54,"W
        16
        G 28",10.0,A Few Clouds,FEW035 FEW090 FEW200,59.0,45.0,60.1,55.0,60%,,,29.99,1015.6,,,,2024-12-18 09:23:34,1900-01-17 12:54:00
17,13:54,"W
        16
        G 24",10.0,Partly Cloudy,FEW035 FEW090 SCT200,59.0,42.1,,,54%,,,29.99,1015.5,,,,2024-12-18 09:23:34,1900-01-17 13:54:00
17,14:54,"W
        15
        G 24",10.0,A Few Clouds,FEW035 FEW090 FEW200,57.9,41.0,,,53%,,,30.0,1015.7,,,,2024-12-18 09:23:34,1900-01-17 14:54:00
17,15:54,"W
        16
        G 28",10.0,A Few Clouds,FEW040 FEW090 FEW200,55.9,39.9,,,55%,,,30.02,1016.6,,,,2024-12-18 09:23:34,1900-01-17 15:54:00
17,16:54,"W
        13",10.0,A Few Clouds,FEW040 FEW200,55.0,37.9,,,53%,,,30.05,1017.5,,,,2024-12-18 09:23:34,1900-01-17 16:54:00
17,17:54,"W
        15",10.0,Fair,CLR,54.0,39.0,,,57%,,,30.07,1018.3,,,,2024-12-18 09:23:34,1900-01-17 17:54:00
17,18:54,"W
        10",10.0,Fair,CLR,53.1,39.9,59.0,53.1,61%,,,30.1,1019.2,,,,2024-12-18 09:23:34,1900-01-17 18:54:00
17,19:54,"W
        12",10.0,A Few Clouds,FEW200,51.1,39.9,,,66%,,,30.12,1019.7,,,,2024-12-18 09:23:34,1900-01-17 19:54:00
17,20:54,"W
        14
        G 22",10.0,A Few Clouds,FEW200,48.9,34.0,,,56%,44.0,,30.13,1020.3,,,,2024-12-18 09:23:34,1900-01-17 20:54:00
17,21:54,"W
        7
        G 18",10.0,Partly Cloudy,FEW080 SCT200,48.0,32.0,,,54%,45.0,,30.16,1021.1,,,,2024-12-18 09:23:34,1900-01-17 21:54:00
17,22:54,"W
        8",10.0,Mostly Cloudy,FEW080 BKN230,46.9,30.9,,,54%,44.0,,30.17,1021.6,,,,2024-12-18 09:23:34,1900-01-17 22:54:00
17,23:54,"W
        9",10.0,Partly Cloudy,SCT230,46.0,30.9,,,56%,42.0,,30.17,1021.6,,,,2024-12-18 09:23:34,1900-01-17 23:54:00
18,00:54,"W
        8
        G 21",10.0,A Few Clouds,FEW230,45.0,30.9,53.1,45.0,58%,41.0,,30.19,1022.2,,,,2024-12-18 09:23:34,1900-01-18 00:54:00
18,01:54,"W
        10
        G 21",10.0,A Few Clouds,FEW250,44.1,30.9,,,60%,39.0,,30.2,1022.6,,,,2024-12-18 09:23:34,1900-01-18 01:54:00
18,02:54,"W
        10",10.0,Fair,CLR,44.1,30.9,,,60%,39.0,,30.21,1022.7,,,,2024-12-18 09:23:34,1900-01-18 02:54:00
18,03:54,"SW
        7",10.0,Fair,CLR,41.0,30.9,,,67%,37.0,,30.21,1022.7,,,,2024-12-18 09:23:34,1900-01-18 03:54:00
18,04:54,"SW
        8",10.0,Fair,CLR,39.0,30.9,,,73%,34.0,,30.23,1023.6,,,,2024-12-19 09:23:39,1900-01-18 04:54:00
18,05:54,"SW
        7",10.0,Fair,CLR,39.0,30.9,,,73%,35.0,,30.24,1023.9,,,,2024-12-19 09:23:39,1900-01-18 05:54:00
18,06:54,"SW
        8",10.0,A Few Clouds,FEW250,39.0,30.9,45.0,37.9,73%,34.0,,30.25,1024.1,,,,2024-12-19 09:23:39,1900-01-18 06:54:00
18,07:54,"SW
        9",10.0,Partly Cloudy,SCT250,41.0,32.0,,,70%,36.0,,30.26,1024.5,,,,2024-12-19 09:23:39,1900-01-18 07:54:00
18,08:54,"SW
        9",10.0,A Few Clouds,FEW120 FEW250,43.0,32.0,,,65%,38.0,,30.25,1024.3,,,,2024-12-19 09:23:39,1900-01-18 08:54:00
18,09:54,"SW
        7",10.0,A Few Clouds,FEW120 FEW250,46.0,33.1,,,61%,43.0,,30.24,1023.8,,,,2024-12-19 09:23:39,1900-01-18 09:54:00
18,10:54,"SW
        8",10.0,Mostly Cloudy,BKN250,48.0,32.0,,,54%,45.0,,30.2,1022.6,,,,2024-12-19 09:23:39,1900-01-18 10:54:00
18,11:54,"W
        6
        G 21",10.0,Mostly Cloudy,BKN250,48.0,30.9,,,52%,46.0,,30.18,1021.7,,,,2024-12-19 09:23:39,1900-01-18 11:54:00
18,12:54,"SW
        9",10.0,Mostly Cloudy,FEW180 BKN250,48.9,32.0,50.0,37.9,52%,45.0,,30.15,1020.8,,,,2024-12-19 09:23:39,1900-01-18 12:54:00
18,13:54,"SW
        8",10.0,Mostly Cloudy,FEW070 FEW180 BKN250,50.0,32.0,,,50%,47.0,,30.13,1020.2,,,,2024-12-19 09:23:39,1900-01-18 13:54:00
18,14:54,"SW
        10",10.0,Mostly Cloudy,FEW070 FEW180 BKN250,50.0,32.0,,,50%,46.0,,30.1,1019.4,,,,2024-12-19 09:23:39,1900-01-18 14:54:00
18,15:54,"SW
        9",10.0,Mostly Cloudy,FEW070 SCT150 BKN250,48.0,32.0,,,54%,44.0,,30.09,1018.9,,,,2024-12-19 09:23:39,1900-01-18 15:54:00
18,16:54,"S
        7",10.0,Mostly Cloudy,FEW070 BKN140 BKN250,43.0,30.9,,,63%,39.0,,30.08,1018.4,,,,2024-12-19 09:23:39,1900-01-18 16:54:00
18,17:54,"S
        10",10.0,Partly Cloudy,SCT140 SCT250,44.1,34.0,,,68%,39.0,,30.07,1018.1,,,,2024-12-19 09:23:39,1900-01-18 17:54:00
18,18:54,"S
        6",10.0,Overcast,BKN070 OVC110,44.1,35.1,50.0,43.0,71%,41.0,,30.03,1016.9,,,,2024-12-19 09:23:39,1900-01-18 18:54:00
18,19:54,"S
        5",6.0,Light Rain,BKN017 OVC046,44.1,36.0,,,73%,42.0,,30.01,1016.3,0.02,,,2024-12-19 09:23:39,1900-01-18 19:54:00
18,20:54,Calm,3.0,Rain Fog/Mist,FEW013 BKN034 OVC045,43.0,39.9,,,89%,,,30.0,1015.9,0.19,,,2024-12-19 09:23:39,1900-01-18 20:54:00
18,21:54,"N
        7",5.0,Light Rain Fog/Mist,BKN007 BKN012 OVC019,42.1,39.9,,,92%,38.0,,29.97,1014.8,0.15,0.36,,2024-12-19 09:23:39,1900-01-18 21:54:00
18,22:54,"N
        8",4.0,Rain Fog/Mist,SCT006 OVC011,42.1,39.9,,,92%,38.0,,29.96,1014.4,0.15,,,2024-12-19 09:23:39,1900-01-18 22:54:00
18,23:54,"N
        10",6.0,Light Rain Fog/Mist,BKN006 OVC022,41.0,39.0,,,93%,35.0,,29.93,1013.6,0.07,,,2024-12-19 09:23:39,1900-01-18 23:54:00
19,00:54,"NW
        7",7.0,Light Rain,FEW007 BKN030 OVC041,41.0,39.0,45.0,41.0,93%,37.0,,29.94,1013.7,0.03,,0.61,2024-12-19 09:23:39,1900-01-19 00:54:00
19,01:54,"N
        7",7.0,Light Rain,SCT007 BKN036 OVC047,41.0,39.0,,,93%,37.0,,29.96,1014.3,0.04,,,2024-12-19 09:23:39,1900-01-19 01:54:00
19,02:54,"NW
        8",10.0,Light Rain,BKN007 BKN035 OVC060,41.0,37.9,,,89%,36.0,,29.96,1014.6,0.03,,,2024-12-19 09:23:39,1900-01-19 02:54:00
19,03:54,"W
        7",10.0,Overcast,FEW008 BKN070 OVC090,39.9,37.9,,,93%,36.0,,29.96,1014.6,0.02,0.09,,2024-12-19 09:23:39,1900-01-19 03:54:00
19,04:54,"W
        10",10.0,Overcast,FEW009 OVC160,39.9,37.0,,,89%,34.0,,29.99,1015.3,,,,2024-12-20 09:21:34,1900-01-19 04:54:00
19,05:54,"W
        10",10.0,Partly Cloudy,FEW160 SCT200,39.9,36.0,,,86%,34.0,,30.02,1016.5,,,,2024-12-20 09:21:34,1900-01-19 05:54:00
19,06:54,"NW
        16",10.0,A Few Clouds,FEW200,39.0,34.0,41.0,39.0,82%,31.0,,30.06,1017.7,,,0.09,2024-12-20 09:21:34,1900-01-19 06:54:00
19,07:54,"W
        14",10.0,A Few Clouds,FEW200,39.0,33.1,,,79%,32.0,,30.1,1019.2,,,,2024-12-20 09:21:34,1900-01-19 07:54:00
19,08:54,"W
        13
        G 22",10.0,A Few Clouds,FEW065 FEW200,41.0,33.1,,,73%,34.0,,30.13,1020.1,,,,2024-12-20 09:21:34,1900-01-19 08:54:00
19,09:54,"NW
        14
        G 28",10.0,A Few Clouds,FEW050 FEW250,42.1,30.9,,,65%,35.0,,30.15,1021.0,,,,2024-12-20 09:21:34,1900-01-19 09:54:00
19,10:54,"NW
        20
        G 26",10.0,A Few Clouds,FEW037 FEW200,44.1,30.0,,,58%,37.0,,30.15,1020.8,,,,2024-12-20 09:21:34,1900-01-19 10:54:00
19,11:54,"NW
        16
        G 28",10.0,A Few Clouds,FEW037 FEW200,44.1,28.0,,,53%,37.0,,30.14,1020.6,,,,2024-12-20 09:21:34,1900-01-19 11:54:00
19,12:54,"NW
        12
        G 23",10.0,Partly Cloudy,SCT042 SCT250,44.1,26.1,45.0,39.0,49%,39.0,,30.15,1020.8,,,,2024-12-20 09:21:34,1900-01-19 12:54:00
19,13:54,"W
        12
        G 20",10.0,A Few Clouds,FEW045 FEW250,43.0,24.1,,,47%,37.0,,30.16,1021.3,,,,2024-12-20 09:21:34,1900-01-19 13:54:00
19,14:54,"NW
        12
        G 26",10.0,A Few Clouds,FEW047 FEW250,41.0,23.0,,,49%,35.0,,30.2,1022.5,,,,2024-12-20 09:21:34,1900-01-19 14:54:00
19,15:54,"NW
        15
        G 21",10.0,Mostly Cloudy,BKN047 BKN250,41.0,21.9,,,47%,34.0,,30.25,1024.1,,,,2024-12-20 09:21:34,1900-01-19 15:54:00
19,16:54,"NW
        9",10.0,Mostly Cloudy,SCT055 BKN250,39.9,21.0,,,47%,34.0,,30.27,1024.9,,,,2024-12-20 09:21:34,1900-01-19 16:54:00
19,17:54,"N
        6",10.0,Mostly Cloudy,FEW055 BKN250,39.0,21.9,,,50%,35.0,,30.29,1025.5,,,,2024-12-20 09:21:34,1900-01-19 17:54:00
19,18:54,"N
        3",10.0,Overcast,FEW065 OVC250,37.0,21.9,45.0,37.0,54%,,,30.29,1025.6,,,,2024-12-20 09:21:34,1900-01-19 18:54:00
19,19:54,"N
        9",10.0,Mostly Cloudy,FEW065 BKN250,36.0,23.0,,,59%,30.0,,30.3,1025.8,,,,2024-12-20 09:21:34,1900-01-19 19:54:00
19,20:54,"Vrbl
        6",10.0,Partly Cloudy,FEW090 SCT250,35.1,24.1,,,64%,31.0,,30.31,1026.4,,,,2024-12-20 09:21:34,1900-01-19 20:54:00
19,21:54,"N
        8",10.0,Mostly Cloudy,FEW090 SCT150 BKN250,33.1,23.0,,,66%,27.0,,30.32,1026.5,,,,2024-12-20 09:21:34,1900-01-19 21:54:00
19,22:54,"N
        6",10.0,Mostly Cloudy,FEW090 SCT160 BKN220,33.1,21.9,,,64%,28.0,,30.33,1026.8,,,,2024-12-20 09:21:34,1900-01-19 22:54:00
19,23:54,"N
        12",10.0,Mostly Cloudy,SCT100 BKN160 BKN220,32.0,21.0,,,64%,24.0,,30.32,1026.5,,,,2024-12-20 09:21:34,1900-01-19 23:54:00
2,21:54,"N
        7",10.0,Fair,CLR,44.1,28.0,,,53%,41.0,,30.37,1028.2,,,,2024-11-05 20:21:09,1900-01-02 21:54:00
2,22:54,"N
        8",10.0,Fair,CLR,43.0,27.0,,,53%,39.0,,30.37,1028.3,,,,2024-11-05 20:21:09,1900-01-02 22:54:00
2,23:54,"N
        6",8.0,Fair,CLR,41.0,27.0,,,57%,38.0,,30.39,1028.9,,,,2024-11-05 20:21:09,1900-01-02 23:54:00
20,00:54,"N
        9",10.0,Overcast,FEW050 SCT100 BKN160 OVC200,30.9,19.9,37.9,30.9,64%,24.0,,30.3,1025.9,,,,2024-12-20 09:21:34,1900-01-20 00:54:00
20,01:54,"N
        10",10.0,Overcast,BKN039 OVC140,30.9,19.9,,,64%,23.0,,30.32,1026.7,,,,2024-12-20 09:21:34,1900-01-20 01:54:00
20,02:54,"N
        10",10.0,Overcast,FEW028 OVC041,30.9,21.0,,,67%,23.0,,30.29,1025.7,,,,2024-12-20 09:21:34,1900-01-20 02:54:00
20,03:54,"N
        12",10.0,Overcast,OVC026,32.0,21.9,,,66%,24.0,,30.28,1025.4,,,,2024-12-20 09:21:34,1900-01-20 03:54:00
20,04:54,"N
        10",10.0,Overcast,OVC024,32.0,24.1,,,73%,24.0,,30.26,1024.7,,,,2024-12-21 09:19:02,1900-01-20 04:54:00
20,05:54,"NE
        13",10.0,Overcast,OVC023,33.1,25.0,,,72%,25.0,,30.27,1024.8,,,,2024-12-21 09:19:02,1900-01-20 05:54:00
20,06:54,"N
        13",10.0,Overcast,OVC021,34.0,26.1,34.0,30.9,73%,26.0,,30.26,1024.6,,,,2024-12-21 09:19:02,1900-01-20 06:54:00
20,07:54,"NE
        12",10.0,Overcast,OVC020,34.0,26.1,,,73%,26.0,,30.25,1024.2,,,,2024-12-21 09:19:02,1900-01-20 07:54:00
20,08:54,"N
        15",2.0,Light Snow,OVC014,33.1,28.0,,,82%,24.0,,30.24,1024.0,,,,2024-12-21 09:19:02,1900-01-20 08:54:00
20,09:54,"N
        12",2.0,Light Snow Fog/Mist,OVC013,33.1,30.0,,,89%,25.0,,30.21,1023.0,,,,2024-12-21 09:19:02,1900-01-20 09:54:00
20,10:54,"NE
        16
        G 26",1.0,Light Snow Fog/Mist,OVC011,34.0,30.9,,,89%,24.0,,30.15,1021.0,,,,2024-12-21 09:19:02,1900-01-20 10:54:00
20,11:54,"N
        16",1.5,Light Snow Fog/Mist,OVC012,34.0,32.0,,,92%,24.0,,30.11,1019.5,0.01,,,2024-12-21 09:19:02,1900-01-20 11:54:00
20,12:54,"N
        13",1.0,Light Snow Fog/Mist,OVC008,30.9,28.9,34.0,30.9,92%,22.0,,30.07,1018.3,0.03,,0.04,2024-12-21 09:19:02,1900-01-20 12:54:00
20,13:54,"N
        16",0.5,Snow Freezing Fog,VV008,30.0,28.0,,,92%,19.0,,30.03,1017.0,0.07,,,2024-12-21 09:19:02,1900-01-20 13:54:00
20,14:54,"N
        13",9.0,Light Rain,BKN005 OVC014,34.0,33.1,,,97%,26.0,,29.99,1015.3,0.06,,,2024-12-21 09:19:02,1900-01-20 14:54:00
20,15:54,"N
        5
        G 29",6.0,Light Rain Fog/Mist,FEW005 OVC019,34.0,30.9,,,89%,30.0,,30.0,1015.7,0.04,0.17,,2024-12-21 09:19:02,1900-01-20 15:54:00
20,16:54,"N
        14",2.0,Light Snow Fog/Mist,BKN012 OVC016,30.9,28.9,,,92%,21.0,,29.97,1014.9,0.06,,,2024-12-21 09:19:02,1900-01-20 16:54:00
20,17:54,"N
        15
        G 26",1.0,Light Snow Fog/Mist,OVC007,28.9,27.0,,,92%,18.0,,30.0,1015.8,0.07,,,2024-12-21 09:19:02,1900-01-20 17:54:00
20,18:54,"N
        21
        G 29",0.5,Freezing Rain Snow Freezing Fog and Breezy,VV006,28.0,26.1,37.0,28.0,92%,15.0,,29.97,1014.8,0.13,,0.43,2024-12-21 09:19:02,1900-01-20 18:54:00
20,19:54,"N
        15",1.75,Light Snow Fog/Mist,OVC010,28.0,26.1,,,92%,17.0,,29.95,1014.1,0.04,,,2024-12-21 09:19:02,1900-01-20 19:54:00
20,20:54,"N
        16
        G 24",2.5,Light Snow Fog/Mist,OVC008,28.0,26.1,,,92%,17.0,,29.9,1012.4,,,,2024-12-21 09:19:02,1900-01-20 20:54:00
20,21:54,"N
        16
        G 30",1.25,Light Snow Fog/Mist,SCT008 BKN011 OVC017,28.9,26.1,,,89%,18.0,,29.87,1011.4,,0.04,,2024-12-21 09:19:02,1900-01-20 21:54:00
20,22:54,"N
        16",8.0,Overcast,FEW008 OVC012,27.0,23.0,,,85%,16.0,,29.87,1011.3,,,,2024-12-21 09:19:02,1900-01-20 22:54:00
20,23:54,"NW
        14",10.0,Overcast,OVC014,27.0,21.9,,,81%,16.0,,29.87,1011.4,,,,2024-12-21 09:19:02,1900-01-20 23:54:00
21,00:54,"NW
        17
        G 25",10.0,Overcast,OVC015,26.1,19.9,28.9,26.1,78%,14.0,,29.86,1011.2,,,0.04,2024-12-21 09:19:02,1900-01-21 00:54:00
21,01:54,"NW
        13",10.0,Overcast,SCT022 BKN070 OVC110,26.1,19.9,,,78%,16.0,,29.87,1011.3,,,,2024-12-21 09:19:02,1900-01-21 01:54:00
21,02:54,"NW
        15",10.0,Overcast,FEW025 OVC070,25.0,18.0,,,75%,13.0,,29.87,1011.4,,,,2024-12-21 09:19:02,1900-01-21 02:54:00
21,03:54,"NW
        12",10.0,Overcast,OVC070,25.0,17.1,,,72%,15.0,,29.85,1010.8,,,,2024-12-21 09:19:02,1900-01-21 03:54:00
21,04:54,"NW
        10",10.0,Overcast,OVC065,25.0,16.0,,,69%,16.0,,29.85,1010.7,,,,2024-12-22 09:19:08,1900-01-21 04:54:00
21,05:54,"NW
        12
        G 21",10.0,Mostly Cloudy,BKN065,26.1,17.1,,,69%,16.0,,29.85,1010.8,,,,2024-12-22 09:19:08,1900-01-21 05:54:00
21,06:54,"NW
        13
        G 21",10.0,Mostly Cloudy,FEW030 FEW065 BKN110 BKN250,26.1,18.0,26.1,25.0,71%,16.0,,29.86,1011.1,,,,2024-12-22 09:19:08,1900-01-21 06:54:00
21,07:54,"NW
        10",10.0,Mostly Cloudy,FEW025 FEW090 BKN110 BKN240,26.1,19.9,,,78%,17.0,,29.88,1011.7,,,,2024-12-22 09:19:08,1900-01-21 07:54:00
21,08:54,"NW
        12",10.0,Overcast,FEW025 FEW060 BKN110 OVC220,27.0,19.0,,,72%,17.0,,29.9,1012.4,,,,2024-12-22 09:19:08,1900-01-21 08:54:00
21,09:54,"NW
        15
        G 24",10.0,Overcast,FEW025 SCT060 BKN110 OVC220,28.0,18.0,,,66%,17.0,,29.91,1012.6,,,,2024-12-22 09:19:08,1900-01-21 09:54:00
21,11:54,"NW
        12
        G 23",10.0,Mostly Cloudy,SCT032 SCT090 BKN220,28.0,16.0,,,60%,19.0,,29.88,1011.8,,,,2024-12-22 09:19:08,1900-01-21 11:54:00
21,12:54,"NW
        15
        G 28",10.0,Mostly Cloudy,SCT030 SCT100 BKN250,28.9,14.0,28.9,26.1,54%,18.0,,29.88,1011.8,,,,2024-12-22 09:19:08,1900-01-21 12:54:00
21,13:54,"W
        18
        G 26",10.0,Mostly Cloudy,SCT030 SCT100 BKN250,28.0,12.9,,,53%,16.0,,29.9,1012.4,,,,2024-12-22 09:19:08,1900-01-21 13:54:00
21,14:54,"NW
        16
        G 30",10.0,Partly Cloudy,SCT039 SCT100,27.0,10.9,,,51%,16.0,,29.93,1013.4,,,,2024-12-22 09:19:08,1900-01-21 14:54:00
21,15:54,"NW
        20
        G 33",10.0,Partly Cloudy,SCT040 SCT080,25.0,10.0,,,53%,12.0,,29.95,1014.3,,,,2024-12-22 09:19:08,1900-01-21 15:54:00
21,16:54,"NW
        15
        G 29",10.0,A Few Clouds,FEW035 FEW070,24.1,9.0,,,52%,12.0,,29.99,1015.6,,,,2024-12-22 09:19:08,1900-01-21 16:54:00
21,17:54,"NW
        15
        G 26",10.0,A Few Clouds,FEW035,23.0,8.1,,,53%,11.0,,30.01,1016.2,,,,2024-12-22 09:19:08,1900-01-21 17:54:00
21,18:54,"NW
        20
        G 32",10.0,Fair,CLR,21.9,6.1,28.9,21.9,50%,8.0,,30.03,1016.9,,,,2024-12-22 09:19:08,1900-01-21 18:54:00
21,19:54,"NW
        14
        G 30",10.0,Fair,CLR,19.9,6.1,,,55%,8.0,,30.07,1018.1,,,,2024-12-22 09:19:08,1900-01-21 19:54:00
21,20:54,"NW
        21
        G 32",10.0,Fair and Breezy,CLR,19.0,5.0,,,54%,4.0,,30.09,1018.7,,,,2024-12-22 09:19:08,1900-01-21 20:54:00
21,21:54,"NW
        13
        G 30",10.0,Fair,CLR,19.0,5.0,,,54%,7.0,,30.11,1019.5,,,,2024-12-22 09:19:08,1900-01-21 21:54:00
21,22:54,"NW
        15
        G 24",10.0,Fair,CLR,18.0,3.9,,,54%,5.0,,30.11,1019.6,,,,2024-12-22 09:19:08,1900-01-21 22:54:00
21,23:54,"NW
        17
        G 24",10.0,Fair,CLR,17.1,3.9,,,56%,2.0,,30.12,1019.8,,,,2024-12-22 09:19:08,1900-01-21 23:54:00
22,00:54,"W
        15
        G 26",10.0,Fair,CLR,16.0,3.0,21.9,16.0,56%,2.0,,30.13,1020.1,,,,2024-12-22 09:19:08,1900-01-22 00:54:00
22,01:54,"NW
        14
        G 29",10.0,Fair,CLR,15.1,1.0,,,53%,2.0,,30.16,1021.2,,,,2024-12-22 09:19:08,1900-01-22 01:54:00
22,02:54,"NW
        16
        G 29",10.0,Fair,CLR,14.0,-0.0,,,53%,-1.0,,30.17,1021.6,,,,2024-12-22 09:19:08,1900-01-22 02:54:00
22,03:54,"W
        20
        G 28",10.0,Fair,CLR,12.9,-0.0,,,56%,-4.0,,30.19,1022.1,,,,2024-12-22 09:19:08,1900-01-22 03:54:00
22,04:54,"NW
        20
        G 28",10.0,Fair,CLR,12.9,-0.0,,,56%,-4.0,,30.21,1022.8,,,,2024-12-23 09:22:27,1900-01-22 04:54:00
22,05:54,"NW
        16
        G 28",10.0,Fair,CLR,12.0,-0.9,,,56%,-3.0,,30.24,1023.8,,,,2024-12-23 09:22:27,1900-01-22 05:54:00
22,06:54,"NW
        14
        G 28",10.0,A Few Clouds,FEW030,10.9,-0.9,16.0,10.9,58%,-4.0,,30.28,1025.1,,,,2024-12-23 09:22:27,1900-01-22 06:54:00
22,07:54,"NW
        15
        G 24",10.0,A Few Clouds,FEW030,10.9,-2.0,,,56%,-4.0,,30.31,1026.3,,,,2024-12-23 09:22:27,1900-01-22 07:54:00
22,08:54,"NW
        18
        G 26",10.0,A Few Clouds,FEW030,12.0,-2.9,,,51%,-4.0,,30.35,1027.5,,,,2024-12-23 09:22:27,1900-01-22 08:54:00
22,09:54,"NW
        16
        G 25",10.0,A Few Clouds,FEW030,12.9,-2.9,,,49%,-2.0,,30.38,1028.6,,,,2024-12-23 09:22:27,1900-01-22 09:54:00
22,10:54,"NW
        14
        G 23",10.0,A Few Clouds,FEW030,14.0,-2.9,,,47%,0.0,,30.37,1028.4,,,,2024-12-23 09:22:27,1900-01-22 10:54:00
22,11:54,"NW
        14",10.0,A Few Clouds,FEW030,15.1,-2.9,,,44%,2.0,,30.36,1028.1,,,,2024-12-23 09:22:27,1900-01-22 11:54:00
22,12:54,"NW
        13",10.0,A Few Clouds,FEW030,18.0,-2.0,18.0,10.9,41%,6.0,,30.36,1028.0,,,,2024-12-23 09:22:27,1900-01-22 12:54:00
22,13:54,"W
        13",10.0,A Few Clouds,FEW030,18.0,-0.9,,,43%,6.0,,30.37,1028.2,,,,2024-12-23 09:22:27,1900-01-22 13:54:00
22,14:54,"NW
        14",10.0,A Few Clouds,FEW030,19.0,-0.9,,,41%,6.0,,30.39,1029.1,,,,2024-12-23 09:22:27,1900-01-22 14:54:00
22,15:54,"NW
        12
        G 21",10.0,A Few Clouds,FEW035,18.0,-2.0,,,41%,6.0,,30.43,1030.4,,,,2024-12-23 09:22:27,1900-01-22 15:54:00
22,16:54,"NW
        14",10.0,A Few Clouds,FEW035,17.1,-0.9,,,45%,4.0,,30.46,1031.5,,,,2024-12-23 09:22:27,1900-01-22 16:54:00
22,17:54,"NW
        12",10.0,Fair,CLR,16.0,-0.9,,,47%,4.0,,30.49,1032.3,,,,2024-12-23 09:22:27,1900-01-22 17:54:00
22,18:54,"NW
        14
        G 22",10.0,Fair,CLR,15.1,-0.9,19.0,15.1,49%,2.0,,30.52,1033.3,,,,2024-12-23 09:22:27,1900-01-22 18:54:00
22,19:54,"NW
        12",10.0,Fair,CLR,14.0,-0.9,,,51%,1.0,,30.54,1033.9,,,,2024-12-23 09:22:27,1900-01-22 19:54:00
22,20:54,"NW
        10",10.0,Fair,CLR,12.9,-0.9,,,54%,1.0,,30.55,1034.4,,,,2024-12-23 09:22:27,1900-01-22 20:54:00
22,21:54,"NW
        10",10.0,Fair,CLR,12.0,-0.9,,,56%,-0.0,,30.57,1034.9,,,,2024-12-23 09:22:27,1900-01-22 21:54:00
22,22:54,"NW
        10",10.0,Fair,CLR,12.0,-0.9,,,56%,-0.0,,30.58,1035.3,,,,2024-12-23 09:22:27,1900-01-22 22:54:00
22,23:54,"NW
        13",10.0,Fair,CLR,10.9,-0.9,,,58%,-3.0,,30.58,1035.5,,,,2024-12-23 09:22:27,1900-01-22 23:54:00
23,00:54,"NW
        12",10.0,Fair,CLR,10.9,-0.0,15.1,10.9,61%,-2.0,,30.58,1035.4,,,,2024-12-23 09:22:27,1900-01-23 00:54:00
23,01:54,"NW
        12",10.0,Fair,CLR,10.9,-0.0,,,61%,-2.0,,30.61,1036.3,,,,2024-12-23 09:22:27,1900-01-23 01:54:00
23,02:54,"NW
        10",10.0,Fair,CLR,10.9,-0.0,,,61%,-2.0,,30.61,1036.3,,,,2024-12-23 09:22:27,1900-01-23 02:54:00
23,03:54,"NW
        10",10.0,Fair,CLR,10.9,-0.0,,,61%,-2.0,,30.6,1036.2,,,,2024-12-23 09:22:27,1900-01-23 03:54:00
23,04:54,"NW
        9",10.0,Fair,CLR,10.0,-0.0,,,63%,-2.0,,30.61,1036.4,,,,2024-12-24 09:21:15,1900-01-23 04:54:00
23,05:54,"NW
        10",10.0,Fair,CLR,10.0,-0.0,,,63%,-3.0,,30.62,1036.7,,,,2024-12-24 09:21:15,1900-01-23 05:54:00
23,06:54,"NW
        8",10.0,A Few Clouds,FEW025,10.0,-0.9,10.9,10.0,61%,-1.0,,30.63,1037.1,,,,2024-12-24 09:21:15,1900-01-23 06:54:00
23,07:54,"NW
        8",10.0,A Few Clouds,FEW025,12.0,1.0,,,61%,1.0,,30.64,1037.5,,,,2024-12-24 09:21:15,1900-01-23 07:54:00
23,08:54,"W
        9",10.0,A Few Clouds,FEW025 FEW250,12.9,1.9,,,61%,2.0,,30.67,1038.3,,,,2024-12-24 09:21:15,1900-01-23 08:54:00
23,09:54,"NW
        5",10.0,Partly Cloudy,FEW030 SCT250,16.0,3.9,,,59%,10.0,,30.66,1038.2,,,,2024-12-24 09:21:15,1900-01-23 09:54:00
23,10:54,"NW
        6",10.0,Partly Cloudy,FEW025 SCT250,19.9,3.9,,,50%,13.0,,30.65,1037.6,,,,2024-12-24 09:21:15,1900-01-23 10:54:00
23,11:54,"W
        5",10.0,Mostly Cloudy,FEW030 FEW050 BKN250,23.0,6.1,,,48%,18.0,,30.62,1036.9,,,,2024-12-24 09:21:15,1900-01-23 11:54:00
23,12:54,"SW
        8",10.0,Mostly Cloudy,SCT030 SCT050 BKN250,23.0,8.1,24.1,10.0,53%,15.0,,30.6,1036.0,,,,2024-12-24 09:21:15,1900-01-23 12:54:00
23,14:54,"S
        10",10.0,Mostly Cloudy,FEW035 BKN100 BKN250,25.0,12.9,,,60%,16.0,,30.56,1034.7,,,,2024-12-24 09:21:15,1900-01-23 14:54:00
23,15:54,"S
        9",10.0,Mostly Cloudy,FEW035 SCT100 BKN250,26.1,12.9,,,57%,18.0,,30.56,1034.7,,,,2024-12-24 09:21:15,1900-01-23 15:54:00
23,16:54,"S
        10",10.0,Partly Cloudy,FEW035 FEW100 SCT250,25.0,12.0,,,58%,16.0,,30.54,1034.1,,,,2024-12-24 09:21:15,1900-01-23 16:54:00
23,17:54,"S
        10",10.0,A Few Clouds,FEW100 FEW250,24.1,12.9,,,62%,15.0,,30.55,1034.4,,,,2024-12-24 09:21:15,1900-01-23 17:54:00
23,18:54,"S
        9",10.0,A Few Clouds,FEW110 FEW250,24.1,12.9,26.1,23.0,62%,15.0,,30.54,1034.1,,,,2024-12-24 09:21:15,1900-01-23 18:54:00
23,19:54,"S
        9",10.0,Mostly Cloudy,FEW022 BKN100,24.1,15.1,,,68%,15.0,,30.54,1033.9,,,,2024-12-24 09:21:15,1900-01-23 19:54:00
23,20:54,"SW
        10",10.0,Overcast,FEW022 OVC100,24.1,14.0,,,65%,15.0,,30.51,1033.2,,,,2024-12-24 09:21:15,1900-01-23 20:54:00
23,21:54,"SW
        8",10.0,Mostly Cloudy,FEW025 BKN100,23.0,14.0,,,68%,15.0,,30.49,1032.4,,,,2024-12-24 09:21:15,1900-01-23 21:54:00
23,22:54,"SW
        8",10.0,Overcast,FEW025 OVC100,24.1,15.1,,,68%,16.0,,30.47,1031.7,,,,2024-12-24 09:21:15,1900-01-23 22:54:00
23,23:54,"SW
        5",10.0,Overcast,OVC090,24.1,16.0,,,71%,19.0,,30.44,1030.7,,,,2024-12-24 09:21:15,1900-01-23 23:54:00
24,00:54,"SW
        6",10.0,Overcast,FEW025 OVC095,24.1,16.0,25.0,23.0,71%,18.0,,30.41,1029.6,,,,2024-12-24 09:21:15,1900-01-24 00:54:00
24,01:54,"SW
        8",10.0,Overcast,FEW026 OVC120,24.1,17.1,,,75%,16.0,,30.4,1029.1,,,,2024-12-24 09:21:15,1900-01-24 01:54:00
24,02:54,"SW
        7",10.0,Overcast,FEW027 OVC110,25.0,18.0,,,75%,18.0,,30.37,1028.4,,,,2024-12-24 09:21:15,1900-01-24 02:54:00
24,03:54,"S
        6",10.0,Overcast,FEW027 OVC120,25.0,19.0,,,78%,19.0,,30.34,1027.4,,,,2024-12-24 09:21:15,1900-01-24 03:54:00
24,04:54,"S
        7",10.0,Mostly Cloudy,FEW028 BKN120,26.1,19.9,,,78%,19.0,,30.32,1026.5,,,,2024-12-25 09:20:58,1900-01-24 04:54:00
24,05:54,"SW
        7",10.0,Overcast,BKN036 OVC110,27.0,21.0,,,78%,20.0,,30.29,1025.6,,,,2024-12-25 09:20:58,1900-01-24 05:54:00
24,06:54,"SW
        8",10.0,Overcast,SCT042 BKN140 OVC250,28.0,21.0,28.0,24.1,75%,21.0,,30.26,1024.6,,,,2024-12-25 09:20:58,1900-01-24 06:54:00
24,07:54,"SW
        12",10.0,Overcast,SCT030 SCT075 OVC090,30.0,24.1,,,79%,21.0,,30.25,1024.1,,,,2024-12-25 09:20:58,1900-01-24 07:54:00
24,08:54,"SW
        13",3.0,Light Snow,BKN038 OVC090,30.9,23.0,,,72%,22.0,,30.24,1023.9,,,,2024-12-25 09:20:58,1900-01-24 08:54:00
24,09:54,"SW
        12",3.0,Light Snow,BKN023 OVC035,30.0,25.0,,,82%,21.0,,30.24,1023.7,,,,2024-12-25 09:20:58,1900-01-24 09:54:00
24,10:54,"W
        9
        G 23",10.0,Overcast,SCT016 OVC047,30.9,25.0,,,79%,24.0,,30.21,1023.0,,,,2024-12-25 09:20:58,1900-01-24 10:54:00
24,11:54,"W
        13",10.0,Overcast,FEW016 OVC050,30.9,24.1,,,76%,22.0,,30.19,1022.2,,,,2024-12-25 09:20:58,1900-01-24 11:54:00
24,12:54,"W
        9",10.0,Mostly Cloudy,FEW016 BKN070 BKN140,32.0,24.1,32.0,28.0,73%,25.0,,30.17,1021.6,,,,2024-12-25 09:20:58,1900-01-24 12:54:00
24,13:54,"NW
        9",10.0,Partly Cloudy,FEW016 SCT055 SCT130,32.0,23.0,,,69%,25.0,,30.17,1021.4,,,,2024-12-25 09:20:58,1900-01-24 13:54:00
24,14:54,"NW
        5",10.0,Partly Cloudy,FEW016 FEW060 SCT130,34.0,23.0,,,64%,30.0,,30.18,1022.0,,,,2024-12-25 09:20:58,1900-01-24 14:54:00
24,16:54,"N
        7",10.0,A Few Clouds,FEW080,32.0,21.9,,,66%,26.0,,30.22,1023.1,,,,2024-12-25 09:20:58,1900-01-24 16:54:00
24,17:54,"N
        8",10.0,Fair,CLR,30.9,21.0,,,67%,24.0,,30.24,1023.8,,,,2024-12-25 09:20:58,1900-01-24 17:54:00
24,18:54,"N
        5",10.0,Fair,CLR,30.0,21.0,35.1,30.0,69%,26.0,,30.25,1024.4,,,,2024-12-25 09:20:58,1900-01-24 18:54:00
24,19:54,"NW
        10",10.0,A Few Clouds,FEW030,30.9,21.0,,,67%,23.0,,30.26,1024.6,,,,2024-12-25 09:20:58,1900-01-24 19:54:00
24,20:54,"NW
        8",10.0,A Few Clouds,FEW030,28.9,19.0,,,66%,22.0,,30.27,1024.9,,,,2024-12-25 09:20:58,1900-01-24 20:54:00
24,21:54,"NW
        12",10.0,Mostly Cloudy,BKN032,28.9,19.0,,,66%,20.0,,30.28,1025.3,,,,2024-12-25 09:20:58,1900-01-24 21:54:00
24,22:54,"NW
        10",10.0,Overcast,OVC034,28.0,19.0,,,69%,19.0,,30.29,1025.4,,,,2024-12-25 09:20:58,1900-01-24 22:54:00
24,23:54,"N
        15",10.0,Overcast,OVC034,27.0,19.0,,,72%,16.0,,30.29,1025.5,,,,2024-12-25 09:20:58,1900-01-24 23:54:00
25,00:54,"NW
        9",10.0,Overcast,OVC035,26.1,17.1,30.9,26.1,69%,18.0,,30.31,1026.2,,,,2024-12-25 09:20:58,1900-01-25 00:54:00
25,01:54,"NW
        9",10.0,A Few Clouds,FEW035,25.0,16.0,,,69%,16.0,,30.33,1027.0,,,,2024-12-25 09:20:58,1900-01-25 01:54:00
25,02:54,"NW
        9",10.0,Partly Cloudy,SCT034,25.0,17.1,,,72%,16.0,,30.34,1027.4,,,,2024-12-25 09:20:58,1900-01-25 02:54:00
25,03:54,"NW
        7",10.0,Overcast,OVC028,25.0,18.0,,,75%,18.0,,30.34,1027.2,,,,2024-12-25 09:20:58,1900-01-25 03:54:00
25,04:54,"NW
        9",10.0,Overcast,OVC029,25.0,18.0,,,75%,16.0,,30.34,1027.3,,,,2024-12-26 09:21:16,1900-01-25 04:54:00
25,05:54,"N
        10",10.0,Overcast,OVC030,25.0,17.1,,,72%,16.0,,30.36,1027.9,,,,2024-12-26 09:21:16,1900-01-25 05:54:00
25,06:54,"N
        9",10.0,Mostly Cloudy,BKN029 BKN250,25.0,16.0,26.1,24.1,69%,16.0,,30.36,1028.1,,,,2024-12-26 09:21:16,1900-01-25 06:54:00
25,07:54,"NW
        9",10.0,A Few Clouds,FEW029,24.1,16.0,,,71%,15.0,,30.38,1028.7,,,,2024-12-26 09:21:16,1900-01-25 07:54:00
25,08:54,"N
        7",10.0,A Few Clouds,FEW029,25.0,17.1,,,72%,18.0,,30.39,1028.9,,,,2024-12-26 09:21:16,1900-01-25 08:54:00
25,09:54,"N
        8",10.0,A Few Clouds,FEW029,27.0,17.1,,,66%,19.0,,30.39,1029.0,,,,2024-12-26 09:21:16,1900-01-25 09:54:00
25,10:54,"NW
        10",10.0,A Few Clouds,FEW029,28.0,15.1,,,58%,19.0,,30.37,1028.4,,,,2024-12-26 09:21:16,1900-01-25 10:54:00
25,11:54,"N
        10",10.0,A Few Clouds,FEW025,30.0,15.1,,,54%,22.0,,30.36,1027.9,,,,2024-12-26 09:21:16,1900-01-25 11:54:00
25,12:54,"NW
        10",10.0,A Few Clouds,FEW025,30.9,15.1,30.9,24.1,52%,23.0,,30.35,1027.8,,,,2024-12-26 09:21:16,1900-01-25 12:54:00
25,13:54,"NW
        9",10.0,A Few Clouds,FEW025,32.0,15.1,,,50%,25.0,,30.34,1027.4,,,,2024-12-26 09:21:16,1900-01-25 13:54:00
25,14:54,"N
        8",10.0,A Few Clouds,FEW025,32.0,15.1,,,50%,25.0,,30.34,1027.4,,,,2024-12-26 09:21:16,1900-01-25 14:54:00
25,15:54,"N
        5",10.0,A Few Clouds,FEW025,32.0,15.1,,,50%,28.0,,30.36,1028.1,,,,2024-12-26 09:21:16,1900-01-25 15:54:00
25,16:54,"N
        6",10.0,A Few Clouds,FEW030 FEW250,30.9,15.1,,,52%,26.0,,30.38,1028.8,,,,2024-12-26 09:21:16,1900-01-25 16:54:00
25,17:54,"NW
        6",10.0,A Few Clouds,FEW030 FEW250,30.0,15.1,,,54%,25.0,,30.4,1029.2,,,,2024-12-26 09:21:16,1900-01-25 17:54:00
25,18:54,"N
        5",10.0,Mostly Cloudy,BKN038 BKN250,30.0,16.0,33.1,30.0,56%,26.0,,30.41,1029.8,,,,2024-12-26 09:21:16,1900-01-25 18:54:00
25,19:54,"Vrbl
        6",10.0,Mostly Cloudy,BKN040 BKN250,30.9,15.1,,,52%,26.0,,30.41,1029.7,,,,2024-12-26 09:21:16,1900-01-25 19:54:00
25,20:54,"NW
        8",10.0,Overcast,FEW025 OVC039,30.0,17.1,,,58%,23.0,,30.42,1030.0,,,,2024-12-26 09:21:16,1900-01-25 20:54:00
25,21:54,"N
        8",10.0,Overcast,FEW025 OVC038,30.0,19.0,,,64%,23.0,,30.41,1029.7,,,,2024-12-26 09:21:16,1900-01-25 21:54:00
25,22:54,"NW
        9",10.0,Overcast,FEW017 OVC037,30.0,19.0,,,64%,22.0,,30.41,1029.6,,,,2024-12-26 09:21:16,1900-01-25 22:54:00
25,23:54,"NW
        8",10.0,Overcast,SCT016 OVC036,30.0,19.0,,,64%,23.0,,30.4,1029.4,,,,2024-12-26 09:21:16,1900-01-25 23:54:00
26,00:54,"NW
        7",10.0,Overcast,FEW016 OVC034,28.9,18.0,30.9,28.9,63%,23.0,,30.39,1029.1,,,,2024-12-26 09:21:16,1900-01-26 00:54:00
26,01:54,"NW
        8",10.0,Overcast,BKN016 OVC032,28.9,18.0,,,63%,22.0,,30.42,1030.1,,,,2024-12-26 09:21:16,1900-01-26 01:54:00
26,02:54,"NW
        7",10.0,Overcast,FEW017 OVC033,28.9,18.0,,,63%,23.0,,30.42,1030.2,,,,2024-12-26 09:21:16,1900-01-26 02:54:00
26,03:54,"NW
        7",10.0,Overcast,FEW017 OVC032,28.9,19.0,,,66%,23.0,,30.43,1030.2,,,,2024-12-26 09:21:16,1900-01-26 03:54:00
26,04:54,"NW
        12",10.00,Overcast,FEW017 OVC033,28.9,19,,,66%,20,,30.43,1030.5,,,,2024-12-27 09:20:58,1900-01-26 04:54:00
26,05:54,"NW
        6",10.00,Overcast,FEW017 OVC033,28.9,19.9,,,69%,23,,30.46,1031.3,,,,2024-12-27 09:20:58,1900-01-26 05:54:00
26,06:54,"NW
        5",10.00,Overcast,OVC034,28.9,19.9,28.9,28,69%,25,,30.47,1031.7,,,,2024-12-27 09:20:58,1900-01-26 06:54:00
26,07:54,"W
        6",10.00,Overcast,FEW020 OVC034,28.9,19.9,,,69%,23,,30.49,1032.4,,,,2024-12-27 09:20:58,1900-01-26 07:54:00
26,08:54,"NW
        3",10.00,Mostly Cloudy,FEW020 BKN034,30,21,,,69%,,,30.49,1032.5,,,,2024-12-27 09:20:58,1900-01-26 08:54:00
26,09:54,"NW
        5",10.00,Mostly Cloudy,FEW016 BKN034,32,21.9,,,66%,28,,30.5,1032.7,,,,2024-12-27 09:20:58,1900-01-26 09:54:00
26,10:54,"NW
        5",10.00,Mostly Cloudy,FEW018 BKN033,33.1,23,,,66%,29,,30.47,1031.8,,,,2024-12-27 09:20:58,1900-01-26 10:54:00
26,11:54,"NW
        5",10.00,Partly Cloudy,FEW018 SCT032,34,21.9,,,61%,30,,30.45,1031.0,,,,2024-12-27 09:20:58,1900-01-26 11:54:00
26,12:54,"W
        3",10.00,A Few Clouds,FEW018 FEW033,37,23,37,28.9,57%,,,30.42,1030.0,,,,2024-12-27 09:20:58,1900-01-26 12:54:00
26,13:54,"S
        3",10.00,A Few Clouds,FEW018 FEW035,35.1,23,,,61%,,,30.42,1029.9,,,,2024-12-27 09:20:58,1900-01-26 13:54:00
26,14:54,"SE
        5",10.00,A Few Clouds,FEW035,35.1,24.1,,,64%,32,,30.42,1029.8,,,,2024-12-27 09:20:58,1900-01-26 14:54:00
26,15:54,"SE
        5",10.00,A Few Clouds,FEW035,34,23,,,64%,30,,30.42,1030.1,,,,2024-12-27 09:20:58,1900-01-26 15:54:00
26,16:54,"SE
        3",10.00,A Few Clouds,FEW030,33.1,23,,,66%,,,30.44,1030.8,,,,2024-12-27 09:20:58,1900-01-26 16:54:00
26,17:54,Calm,10.00,Fair,CLR,34,23,,,64%,,,30.46,1031.3,,,,2024-12-27 09:20:58,1900-01-26 17:54:00
26,18:54,Calm,10.00,Fair,CLR,32,23,37,32,69%,,,30.46,1031.2,,,,2024-12-27 09:20:58,1900-01-26 18:54:00
26,19:54,Calm,10.00,Fair,CLR,32,21.9,,,66%,,,30.46,1031.3,,,,2024-12-27 09:20:58,1900-01-26 19:54:00
26,20:54,"N
        5",10.00,Fair,CLR,30.9,21.9,,,69%,27,,30.46,1031.4,,,,2024-12-27 09:20:58,1900-01-26 20:54:00
26,21:54,"N
        5",10.00,Fair,CLR,32,23,,,69%,28,,30.46,1031.3,,,,2024-12-27 09:20:58,1900-01-26 21:54:00
26,22:54,Calm,10.00,Fair,CLR,30,21,,,69%,,,30.46,1031.2,,,,2024-12-27 09:20:58,1900-01-26 22:54:00
26,23:54,"NW
        5",10.00,Fair,CLR,30,21.9,,,72%,26,,30.44,1030.7,,,,2024-12-27 09:20:58,1900-01-26 23:54:00
27,00:54,"W
        6",10.00,Fair,CLR,28.9,21,34,27,72%,23,,30.44,1030.7,,,,2024-12-27 09:20:58,1900-01-27 00:54:00
27,01:54,"N
        3",10.00,Fair,CLR,25,19,,,78%,,,30.45,1030.9,,,,2024-12-27 09:20:58,1900-01-27 01:54:00
27,02:54,"W
        3",10.00,Fair,CLR,26.1,19.9,,,78%,,,30.45,1031.1,,,,2024-12-27 09:20:58,1900-01-27 02:54:00
27,03:54,"NW
        5",10.00,Fair,CLR,26.1,18,,,71%,21,,30.44,1030.8,,,,2024-12-27 09:20:58,1900-01-27 03:54:00
3,00:54,"N
        9",10.0,A Few Clouds,FEW250,39.9,27.0,,,60%,34.0,,30.39,1029.1,,,,2024-11-05 20:21:09,1900-01-03 00:54:00
3,01:54,"NW
        10",10.0,Fair,CLR,37.9,25.0,,,60%,32.0,,30.41,1029.7,,,,2024-11-05 20:21:09,1900-01-03 01:54:00
3,01:54,"NW
        9",10.0,Fair,CLR,39.0,27.0,46.9,39.0,62%,33.0,,30.4,1029.3,,,,2024-11-05 20:21:09,1900-01-03 01:54:00
3,02:54,"NW
        8",10.0,Fair,CLR,37.0,25.0,,,62%,32.0,,30.41,1029.6,,,,2024-11-05 20:21:09,1900-01-03 02:54:00
3,03:54,"NW
        13",10.0,Partly Cloudy,SCT034,37.0,25.0,,,62%,30.0,,30.41,1029.8,,,,2024-11-05 20:21:09,1900-01-03 03:54:00
3,04:54,"NW
        10",10.0,Overcast,OVC035,37.0,25.0,,,62%,30.0,,30.43,1030.3,,,,2024-11-05 20:21:09,1900-01-03 04:54:00
3,05:54,"NW
        10",10.0,Mostly Cloudy,FEW030 BKN038,36.0,24.1,,,62%,29.0,,30.43,1030.2,,,,2024-11-05 20:21:09,1900-01-03 05:54:00
3,06:54,"NW
        8",10.0,Mostly Cloudy,FEW030 BKN036,37.0,24.1,39.0,36.0,59%,32.0,,30.45,1030.9,,,,2024-11-05 20:21:09,1900-01-03 06:54:00
3,07:54,"NW
        9",10.0,Mostly Cloudy,FEW030 BKN036,39.0,24.1,,,55%,33.0,,30.47,1031.6,,,,2024-11-05 20:21:09,1900-01-03 07:54:00
3,08:54,"NW
        9",10.0,Mostly Cloudy,FEW030 BKN038,41.0,25.0,,,53%,36.0,,30.47,1031.7,,,,2024-11-05 20:21:09,1900-01-03 08:54:00
3,09:54,"Vrbl
        7",10.0,Partly Cloudy,FEW030 SCT040,44.1,26.1,,,49%,41.0,,30.47,1031.6,,,,2024-11-05 20:21:09,1900-01-03 09:54:00
3,10:54,"NE
        6",10.0,Partly Cloudy,FEW030 SCT040,44.1,28.9,,,55%,41.0,,30.46,1031.4,,,,2024-11-05 20:21:09,1900-01-03 10:54:00
3,11:54,"SE
        6",10.0,A Few Clouds,FEW030 FEW040,46.0,30.0,,,54%,44.0,,30.44,1030.8,,,,2024-11-05 20:21:09,1900-01-03 11:54:00
3,12:54,"SE
        9",10.0,A Few Clouds,FEW038,46.0,28.9,46.9,37.0,51%,42.0,,30.44,1030.8,,,,2024-11-05 20:21:09,1900-01-03 12:54:00
3,13:54,"SE
        7",10.0,A Few Clouds,FEW040 FEW250,46.0,30.0,,,54%,43.0,,30.44,1030.6,,,,2024-11-05 20:21:09,1900-01-03 13:54:00
3,14:54,"SE
        5",10.0,Partly Cloudy,FEW040 FEW120 SCT250,46.0,28.9,,,51%,44.0,,30.44,1030.6,,,,2024-11-05 20:21:09,1900-01-03 14:54:00
3,15:54,"SE
        5",10.0,Partly Cloudy,FEW180 SCT250,45.0,28.9,,,54%,43.0,,30.46,1031.2,,,,2024-11-05 20:21:09,1900-01-03 15:54:00
3,16:54,Calm,10.0,Partly Cloudy,FEW180 SCT250,45.0,27.0,,,49%,,,30.47,1031.8,,,,2024-11-05 20:21:09,1900-01-03 16:54:00
3,17:54,"NW
        5",10.0,Partly Cloudy,FEW180 SCT250,45.0,24.1,,,44%,43.0,,30.49,1032.3,,,,2024-11-05 20:21:09,1900-01-03 17:54:00
3,18:54,"E
        3",10.0,Partly Cloudy,SCT250,46.0,28.0,46.9,44.1,50%,,,30.49,1032.5,,,,2024-11-05 20:21:09,1900-01-03 18:54:00
3,19:54,"S
        8",10.0,Partly Cloudy,SCT250,42.1,32.0,,,68%,38.0,,30.5,1032.6,,,,2024-11-05 20:21:09,1900-01-03 19:54:00
3,20:54,"S
        5",10.0,A Few Clouds,FEW250,42.1,30.9,,,65%,40.0,,30.51,1032.9,,,,2024-11-05 20:21:09,1900-01-03 20:54:00
3,21:54,"SW
        5",10.0,A Few Clouds,FEW250,39.9,30.0,,,68%,37.0,,30.52,1033.5,,,,2024-11-05 20:21:09,1900-01-03 21:54:00
3,22:54,"SW
        7",10.0,A Few Clouds,FEW250,39.0,30.0,,,70%,35.0,,30.53,1033.6,,,,2024-11-05 20:21:09,1900-01-03 22:54:00
3,23:54,"NW
        3",10.0,Fair,CLR,41.0,28.9,,,62%,,,30.54,1033.9,,,,2024-11-05 20:21:09,1900-01-03 23:54:00
4,00:54,Calm,10.0,A Few Clouds,FEW250,39.9,28.9,46.0,39.0,65%,,,30.53,1033.8,,,,2024-11-05 20:21:09,1900-01-04 00:54:00
4,01:54,Calm,10.0,Fair,CLR,37.0,28.0,,,70%,,,30.55,1034.3,,,,2024-11-05 20:21:09,1900-01-04 01:54:00
4,02:54,"N
        6",10.0,A Few Clouds,FEW250,37.9,26.1,,,62%,34.0,,30.53,1033.9,,,,2024-11-05 20:21:09,1900-01-04 02:54:00
4,03:54,"NW
        3",10.0,A Few Clouds,FEW250,36.0,24.1,,,62%,,,30.54,1034.1,,,,2024-11-05 20:21:09,1900-01-04 03:54:00
4,04:54,"NW
        6",10.0,A Few Clouds,FEW250,36.0,25.0,,,64%,32.0,,30.57,1034.9,,,,2024-11-05 20:21:09,1900-01-04 04:54:00
4,05:54,"NW
        7",10.0,A Few Clouds,FEW030 FEW250,36.0,25.0,,,64%,31.0,,30.58,1035.3,,,,2024-11-05 20:21:09,1900-01-04 05:54:00
4,06:54,"NW
        5",10.0,Partly Cloudy,FEW030 FEW070 SCT250,37.0,26.1,39.9,35.1,65%,34.0,,30.6,1036.0,,,,2024-11-05 20:21:09,1900-01-04 06:54:00
4,07:54,"N
        5",10.0,Mostly Cloudy,FEW030 SCT075 SCT220 BKN250,39.9,27.0,,,60%,37.0,,30.6,1036.2,,,,2024-11-05 20:21:09,1900-01-04 07:54:00
4,08:54,Calm,10.0,Mostly Cloudy,FEW030 FEW075 SCT220 BKN250,43.0,28.9,,,58%,,,30.58,1035.6,,,,2024-11-05 20:21:09,1900-01-04 08:54:00
4,09:54,"SE
        3",10.0,Overcast,FEW035 SCT110 BKN160 OVC250,46.0,30.0,,,54%,,,30.56,1034.9,,,,2024-11-05 20:21:09,1900-01-04 09:54:00
4,10:54,"SE
        3",10.0,Overcast,FEW035 SCT090 BKN120 OVC250,46.0,32.0,,,58%,,,30.56,1034.8,,,,2024-11-05 20:21:09,1900-01-04 10:54:00
4,11:54,"SW
        5",10.0,Overcast,SCT034 SCT090 OVC130,46.9,33.1,,,59%,45.0,,30.54,1034.2,,,,2024-11-05 20:21:09,1900-01-04 11:54:00
4,12:54,"S
        3",10.0,Overcast,FEW030 SCT090 OVC130,48.9,34.0,48.9,37.0,56%,,,30.52,1033.4,,,,2024-11-05 20:21:09,1900-01-04 12:54:00
4,13:54,"SE
        6",10.0,Overcast,FEW032 SCT085 OVC120,48.0,34.0,,,58%,46.0,,30.49,1032.2,,,,2024-11-05 20:21:09,1900-01-04 13:54:00
4,14:54,"S
        10",10.0,Overcast,FEW034 FEW090 BKN130 OVC250,50.0,36.0,,,59%,46.0,,30.47,1031.7,,,,2024-11-05 20:21:09,1900-01-04 14:54:00
4,15:54,"S
        8",10.0,Overcast,SCT035 BKN130 OVC210,48.9,37.0,,,64%,46.0,,30.45,1030.9,,,,2024-11-05 20:21:09,1900-01-04 15:54:00
4,16:54,"S
        7",10.0,Overcast,SCT036 BKN130 OVC210,48.9,37.0,,,64%,46.0,,30.44,1030.7,,,,2024-11-05 20:21:09,1900-01-04 16:54:00
4,17:54,"S
        9",10.0,Overcast,BKN035 BKN130 OVC200,50.0,39.0,,,66%,47.0,,30.43,1030.3,,,,2024-11-05 20:21:09,1900-01-04 17:54:00
4,18:54,"S
        9",10.0,Light Rain,FEW023 BKN032 OVC120,50.0,39.9,50.0,48.0,68%,47.0,,30.41,1029.7,,,,2024-11-05 20:21:09,1900-01-04 18:54:00
4,19:54,"S
        7",10.0,Overcast,FEW026 BKN037 OVC120,48.9,41.0,,,74%,46.0,,30.4,1029.3,,,,2024-11-05 20:21:09,1900-01-04 19:54:00
4,20:54,"S
        9",10.0,Overcast,SCT028 BKN130 OVC200,48.9,41.0,,,74%,45.0,,30.39,1028.9,,,,2024-11-05 20:21:09,1900-01-04 20:54:00
4,21:54,"S
        7",10.0,Overcast,SCT029 OVC038,48.9,42.1,,,77%,46.0,,30.37,1028.3,,,,2024-11-05 20:21:09,1900-01-04 21:54:00
4,22:54,"S
        8",10.0,Overcast,SCT023 BKN043 OVC160,48.9,42.1,,,77%,46.0,,30.34,1027.4,,,,2024-11-05 20:21:09,1900-01-04 22:54:00
4,23:54,"SE
        8",10.0,Overcast,FEW022 BKN040 OVC150,48.9,44.1,,,83%,46.0,,30.31,1026.4,,,,2024-11-05 20:21:09,1900-01-04 23:54:00
5,00:54,"S
        8",10.0,Mostly Cloudy,SCT038 SCT130 BKN180,48.9,45.0,50.0,48.9,86%,46.0,,30.29,1025.8,,,,2024-11-05 20:21:09,1900-01-05 00:54:00
5,01:54,"S
        9",10.0,Mostly Cloudy,SCT039 BKN170,50.0,46.0,,,86%,47.0,,30.26,1024.6,,,,2024-11-05 20:21:09,1900-01-05 01:54:00
5,02:54,"S
        9",10.0,Mostly Cloudy,SCT038 BKN160,50.0,46.9,,,89%,47.0,,30.24,1023.8,,,,2024-11-05 20:21:09,1900-01-05 02:54:00
5,03:54,"S
        8",10.0,Partly Cloudy,SCT040 SCT160,50.0,48.9,,,96%,47.0,,30.23,1023.6,,,,2024-11-05 20:21:09,1900-01-05 03:54:00
5,04:54,"S
        8",10.0,Overcast,SCT035 BKN090 OVC160,52.0,51.1,,,97%,,,30.22,1023.3,,,,2024-11-05 20:21:09,1900-01-05 04:54:00
5,05:54,"SW
        10",10.0,Overcast,FEW023 BKN028 OVC033,54.0,51.1,,,90%,,,30.22,1023.2,,,,2024-11-05 20:21:09,1900-01-05 05:54:00
5,06:54,"S
        10",10.0,Mostly Cloudy,FEW030 BKN065,54.0,51.1,55.0,48.9,90%,,,30.21,1022.8,,,,2024-11-05 20:21:09,1900-01-05 06:54:00
5,08:54,"W
        12
        G 20",10.0,Mostly Cloudy,BKN095 BKN140,62.1,52.0,,,70%,,,30.19,1022.1,,,,2024-11-05 20:21:09,1900-01-05 08:54:00
5,09:54,"W
        9",10.0,Partly Cloudy,FEW090 SCT140,64.0,51.1,,,63%,,,30.17,1021.5,,,,2024-11-05 20:21:09,1900-01-05 09:54:00
5,10:54,"W
        14",10.0,Partly Cloudy,SCT090 SCT140,68.0,52.0,,,57%,,,30.15,1020.9,,,,2024-11-05 20:21:09,1900-01-05 10:54:00
5,11:54,"W
        14",10.0,A Few Clouds,FEW100,70.0,52.0,,,53%,,,30.11,1019.7,,,,2024-11-05 20:21:09,1900-01-05 11:54:00
5,12:54,"SW
        16",10.0,A Few Clouds,FEW110 FEW250,72.0,53.1,72.0,54.0,52%,,,30.09,1019.0,,,,2024-11-05 20:21:09,1900-01-05 12:54:00
5,13:54,"SW
        13",10.0,A Few Clouds,FEW110 FEW250,73.9,53.1,,,48%,,,30.06,1018.0,,,,2024-11-05 20:21:09,1900-01-05 13:54:00
5,14:54,"SW
        15",10.0,Mostly Cloudy,FEW110 BKN250,73.9,53.1,,,48%,,,30.05,1017.4,,,,2024-11-05 20:21:09,1900-01-05 14:54:00
5,15:54,"SW
        13",10.0,Mostly Cloudy,FEW110 BKN250,73.9,54.0,,,50%,,,30.03,1016.9,,,,2024-11-05 20:21:09,1900-01-05 15:54:00
5,16:54,"SW
        17
        G 23",10.0,Mostly Cloudy,FEW110 BKN250,71.1,54.0,,,55%,,,30.03,1016.8,,,,2024-11-05 20:21:09,1900-01-05 16:54:00
5,17:54,"SW
        14",10.0,Partly Cloudy,FEW110 SCT250,69.1,54.0,,,59%,,,30.03,1016.9,,,,2024-11-05 20:21:09,1900-01-05 17:54:00
5,18:54,"SW
        17
        G 28",10.0,Partly Cloudy,SCT250,66.9,54.0,75.0,66.9,63%,,,30.03,1017.0,,,,2024-11-05 20:21:09,1900-01-05 18:54:00
5,19:54,"SW
        21",10.0,A Few Clouds and Breezy,FEW250,64.9,54.0,,,68%,,,30.03,1016.8,,,,2024-11-05 20:21:09,1900-01-05 19:54:00
5,20:54,"SW
        18
        G 30",10.0,A Few Clouds,FEW250,64.0,55.0,,,73%,,,30.03,1016.8,,,,2024-11-06 09:24:20,1900-01-05 20:54:00
5,21:54,"SW
        18",10.0,Fair,CLR,63.0,55.0,,,76%,,,30.02,1016.6,,,,2024-11-06 09:24:20,1900-01-05 21:54:00
5,22:54,"SW
        15",10.0,Fair,CLR,61.0,55.0,,,81%,,,30.02,1016.4,,,,2024-11-06 09:24:20,1900-01-05 22:54:00
5,23:54,"SW
        16",10.0,Fair,CLR,61.0,55.9,,,84%,,,30.01,1016.3,,,,2024-11-06 09:24:20,1900-01-05 23:54:00
6,00:54,"SW
        22",10.0,Fair and Breezy,CLR,63.0,57.0,66.9,61.0,81%,,,30.0,1015.7,,,,2024-11-06 09:24:20,1900-01-06 00:54:00
6,01:54,"SW
        18
        G 28",10.0,Fair,CLR,64.0,57.0,,,78%,,,30.0,1015.7,,,,2024-11-06 09:24:20,1900-01-06 01:54:00
6,02:54,"SW
        16",10.0,Fair,CLR,64.0,57.9,,,81%,,,29.99,1015.6,,,,2024-11-06 09:24:20,1900-01-06 02:54:00
6,03:54,"SW
        16",10.0,Fair,CLR,64.9,57.9,,,78%,,,29.98,1015.1,,,,2024-11-06 09:24:20,1900-01-06 03:54:00
6,04:54,"SW
        18
        G 26",10.0,Fair,CLR,64.9,57.9,,,78%,,,29.97,1014.7,,,,2024-11-07 09:21:39,1900-01-06 04:54:00
6,05:54,"SW
        16",10.0,A Few Clouds,FEW065,64.9,57.0,,,76%,,,29.96,1014.3,,,,2024-11-07 09:21:39,1900-01-06 05:54:00
6,06:54,"SW
        17
        G 28",10.0,A Few Clouds,FEW090,64.9,55.0,64.9,63.0,70%,,,29.96,1014.5,,,,2024-11-07 09:21:39,1900-01-06 06:54:00
6,07:54,"SW
        17
        G 29",10.0,A Few Clouds,FEW090,66.0,55.9,,,70%,,,29.95,1014.1,,,,2024-11-07 09:21:39,1900-01-06 07:54:00
6,08:54,"SW
        23
        G 31",10.0,A Few Clouds and Breezy,FEW090 FEW200,69.1,57.0,,,66%,,,29.94,1013.7,,,,2024-11-07 09:21:39,1900-01-06 08:54:00
6,09:54,"SW
        17
        G 30",10.0,A Few Clouds,FEW080 FEW140 FEW200,73.0,57.0,,,57%,,,29.91,1012.9,,,,2024-11-07 09:21:39,1900-01-06 09:54:00
6,10:54,"W
        16
        G 28",10.0,A Few Clouds,FEW090 FEW140,73.9,57.0,,,56%,,,29.9,1012.3,,,,2024-11-07 09:21:39,1900-01-06 10:54:00
6,11:54,"SW
        15",10.0,A Few Clouds,FEW090 FEW180,78.1,57.0,,,48%,,79.0,29.86,1011.1,,,,2024-11-07 09:21:39,1900-01-06 11:54:00
6,12:54,"SW
        17",10.0,A Few Clouds,FEW090 FEW250,81.0,55.9,81.0,64.9,42%,,81.0,29.84,1010.3,,,,2024-11-07 09:21:39,1900-01-06 12:54:00
6,13:54,"W
        17
        G 30",10.0,A Few Clouds,FEW090 FEW140 FEW250,81.0,55.9,,,42%,,81.0,29.81,1009.5,,,,2024-11-07 09:21:39,1900-01-06 13:54:00
6,14:54,"W
        13",10.0,A Few Clouds,FEW075 FEW110 FEW250,81.0,55.9,,,42%,,81.0,29.81,1009.6,,,,2024-11-07 09:21:39,1900-01-06 14:54:00
6,15:54,"W
        16
        G 28",10.0,Mostly Cloudy,SCT060 BKN120 BKN250,79.0,55.9,,,45%,,80.0,29.85,1010.7,,,,2024-11-07 09:21:39,1900-01-06 15:54:00
6,16:54,"W
        10",10.0,Mostly Cloudy,BKN080 BKN250,78.1,55.9,,,47%,,79.0,29.86,1011.2,,,,2024-11-07 09:21:39,1900-01-06 16:54:00
6,17:54,"W
        9",10.0,Mostly Cloudy,BKN060 BKN095,78.1,57.0,,,48%,,79.0,29.89,1012.0,,,,2024-11-07 09:21:39,1900-01-06 17:54:00
6,18:54,"SW
        8",10.0,Mostly Cloudy,BKN060,73.9,57.0,82.0,73.9,56%,,,29.9,1012.5,,,,2024-11-07 09:21:39,1900-01-06 18:54:00
6,19:54,"SW
        10",10.0,Mostly Cloudy,SCT055 BKN250,71.1,57.9,,,63%,,,29.91,1012.6,,,,2024-11-07 09:21:39,1900-01-06 19:54:00
6,20:54,"SW
        8",10.0,Mostly Cloudy,SCT055 BKN250,71.1,57.9,,,63%,,,29.92,1013.2,,,,2024-11-07 09:21:39,1900-01-06 20:54:00
6,21:54,"SW
        9",10.0,Mostly Cloudy,FEW055 BKN250,69.1,57.0,,,66%,,,29.92,1013.0,,,,2024-11-07 09:21:39,1900-01-06 21:54:00
6,22:54,"W
        9",10.0,A Few Clouds,FEW130 FEW250,71.1,55.9,,,59%,,,29.92,1013.0,,,,2024-11-07 09:21:39,1900-01-06 22:54:00
6,23:54,"W
        12
        G 18",10.0,Partly Cloudy,FEW110 SCT250,70.0,53.1,,,55%,,,29.93,1013.4,,,,2024-11-07 09:21:39,1900-01-06 23:54:00
7,00:54,"W
        13",10.0,A Few Clouds,FEW100 FEW250,68.0,51.1,73.9,68.0,55%,,,29.94,1013.7,,,,2024-11-07 09:21:39,1900-01-07 00:54:00
7,01:54,"W
        12",10.0,A Few Clouds,FEW090 FEW250,68.0,50.0,,,53%,,,29.94,1013.9,,,,2024-11-07 09:21:39,1900-01-07 01:54:00
7,02:54,"W
        12",10.0,A Few Clouds,FEW090 FEW250,66.9,50.0,,,55%,,,29.95,1014.1,,,,2024-11-07 09:21:39,1900-01-07 02:54:00
7,03:54,"W
        9",10.0,A Few Clouds,FEW070 FEW250,64.9,48.9,,,56%,,,29.95,1014.2,,,,2024-11-07 09:21:39,1900-01-07 03:54:00
7,04:54,"W
        8",10.0,A Few Clouds,FEW070 FEW250,63.0,48.9,,,60%,,,29.96,1014.3,,,,2024-11-08 09:21:22,1900-01-07 04:54:00
7,05:54,"W
        9",10.0,A Few Clouds,FEW070 FEW250,63.0,48.9,,,60%,,,29.96,1014.4,,,,2024-11-08 09:21:22,1900-01-07 05:54:00
7,06:54,"W
        9",10.0,Partly Cloudy,FEW070 SCT250,64.0,48.9,69.1,63.0,58%,,,29.96,1014.6,,,,2024-11-08 09:21:22,1900-01-07 06:54:00
7,07:54,"W
        9",10.0,Partly Cloudy,FEW090 SCT250,63.0,50.0,,,63%,,,29.97,1014.9,,,,2024-11-08 09:21:22,1900-01-07 07:54:00
7,08:54,"W
        13",10.0,Mostly Cloudy,FEW090 BKN250,66.0,51.1,,,59%,,,29.97,1014.7,,,,2024-11-08 09:21:22,1900-01-07 08:54:00
7,09:54,"W
        13
        G 24",10.0,Partly Cloudy,FEW055 FEW090 SCT250,69.1,48.9,,,49%,,,29.96,1014.4,,,,2024-11-08 09:21:22,1900-01-07 09:54:00
7,10:54,"W
        17
        G 30",10.0,Partly Cloudy,SCT055,70.0,46.9,,,44%,,,29.95,1014.2,,,,2024-11-08 09:21:22,1900-01-07 10:54:00
7,11:54,"NW
        13",10.0,Partly Cloudy,SCT055,70.0,46.0,,,42%,,,29.94,1013.7,,,,2024-11-08 09:21:22,1900-01-07 11:54:00
7,12:54,"W
        18
        G 29",10.0,Partly Cloudy,SCT060,70.0,41.0,72.0,63.0,35%,,,29.93,1013.6,,,,2024-11-08 09:21:22,1900-01-07 12:54:00
7,13:54,"W
        12",10.0,Partly Cloudy,SCT060,69.1,41.0,,,36%,,,29.94,1013.8,,,,2024-11-08 09:21:22,1900-01-07 13:54:00
7,14:54,"W
        16
        G 30",10.0,Partly Cloudy,SCT065,68.0,39.9,,,36%,,,29.95,1014.2,,,,2024-11-08 09:21:22,1900-01-07 14:54:00
7,15:54,"W
        10
        G 20",10.0,A Few Clouds,FEW065,66.0,39.9,,,39%,,,29.96,1014.4,,,,2024-11-08 09:21:22,1900-01-07 15:54:00
7,16:54,"NW
        8",10.0,A Few Clouds,FEW060,63.0,41.0,,,45%,,,29.98,1015.3,,,,2024-11-08 09:21:22,1900-01-07 16:54:00
7,17:54,"NW
        9",10.0,A Few Clouds,FEW060,61.0,39.9,,,46%,,,30.02,1016.6,,,,2024-11-08 09:21:22,1900-01-07 17:54:00
7,18:54,"N
        8",10.0,A Few Clouds,FEW060,59.0,37.9,70.0,59.0,46%,,,30.04,1017.0,,,,2024-11-08 09:21:22,1900-01-07 18:54:00
7,19:54,"NW
        6",10.0,A Few Clouds,FEW060,57.9,37.0,,,46%,,,30.04,1017.2,,,,2024-11-08 09:21:22,1900-01-07 19:54:00
7,20:54,"W
        8",10.0,A Few Clouds,FEW060,57.0,37.0,,,47%,,,30.05,1017.5,,,,2024-11-08 09:21:22,1900-01-07 20:54:00
7,21:54,"W
        9",10.0,Fair,CLR,55.0,39.9,,,57%,,,30.05,1017.4,,,,2024-11-08 09:21:22,1900-01-07 21:54:00
7,22:54,"W
        13",10.0,Fair,CLR,53.1,39.0,,,59%,,,30.03,1016.8,,,,2024-11-08 09:21:22,1900-01-07 22:54:00
7,23:54,"W
        13",10.0,Fair,CLR,52.0,39.0,,,61%,,,30.02,1016.6,,,,2024-11-08 09:21:22,1900-01-07 23:54:00
8,00:54,"W
        14",10.0,A Few Clouds,FEW250,51.1,37.9,59.0,51.1,61%,,,30.02,1016.5,,,,2024-11-08 09:21:22,1900-01-08 00:54:00
8,01:54,"W
        14",10.0,Partly Cloudy,SCT250,50.0,35.1,,,57%,45.0,,30.02,1016.5,,,,2024-11-08 09:21:22,1900-01-08 01:54:00
8,02:54,"W
        12",10.0,A Few Clouds,FEW250,48.9,34.0,,,56%,45.0,,30.0,1015.7,,,,2024-11-08 09:21:22,1900-01-08 02:54:00
8,03:54,"W
        13",10.0,Partly Cloudy,SCT250,48.9,33.1,,,55%,44.0,,30.0,1015.8,,,,2024-11-08 09:21:22,1900-01-08 03:54:00
8,04:54,"W
        8",10.0,A Few Clouds,FEW250,48.0,34.0,,,58%,45.0,,29.99,1015.3,,,,2024-11-09 09:19:00,1900-01-08 04:54:00
8,05:54,"W
        7",10.0,Partly Cloudy,SCT180 SCT250,48.9,34.0,,,56%,46.0,,29.95,1014.3,,,,2024-11-09 09:19:00,1900-01-08 05:54:00
8,06:54,"SW
        9",10.0,A Few Clouds,FEW180,45.0,35.1,51.1,45.0,68%,41.0,,29.94,1013.9,,,,2024-11-09 09:19:00,1900-01-08 06:54:00
8,07:54,"SW
        15",10.0,A Few Clouds,FEW180,48.9,36.0,,,61%,44.0,,29.93,1013.3,,,,2024-11-09 09:19:00,1900-01-08 07:54:00
8,08:54,"W
        13
        G 24",10.0,A Few Clouds,FEW250,52.0,37.0,,,57%,,,29.9,1012.3,,,,2024-11-09 09:19:00,1900-01-08 08:54:00
8,09:54,"SW
        18
        G 31",10.0,A Few Clouds,FEW250,55.9,37.0,,,49%,,,29.84,1010.5,,,,2024-11-09 09:19:00,1900-01-08 09:54:00
8,10:54,"SW
        21
        G 31",10.0,A Few Clouds and Breezy,FEW055,60.1,34.0,,,38%,,,29.79,1008.9,,,,2024-11-09 09:19:00,1900-01-08 10:54:00
8,11:54,"W
        14
        G 31",10.0,A Few Clouds,FEW055,62.1,30.9,,,31%,,,29.75,1007.2,,,,2024-11-09 09:19:00,1900-01-08 11:54:00
8,12:54,"W
        21
        G 32",10.0,A Few Clouds and Breezy,FEW055,63.0,32.0,63.0,45.0,31%,,,29.71,1006.0,,,,2024-11-09 09:19:00,1900-01-08 12:54:00
8,13:54,"W
        18
        G 29",10.0,A Few Clouds,FEW055,64.0,32.0,,,30%,,,29.69,1005.4,,,,2024-11-09 09:19:00,1900-01-08 13:54:00
8,14:54,"W
        18
        G 37",10.0,A Few Clouds,FEW060,63.0,33.1,,,33%,,,29.71,1006.0,,,,2024-11-09 09:19:00,1900-01-08 14:54:00
8,15:54,"W
        20
        G 29",10.0,Partly Cloudy,SCT065,62.1,33.1,,,34%,,,29.73,1006.7,,,,2024-11-09 09:19:00,1900-01-08 15:54:00
8,16:54,"W
        20
        G 33",10.0,Overcast,OVC065,60.1,35.1,,,39%,,,29.75,1007.4,,,,2024-11-09 09:19:00,1900-01-08 16:54:00
8,17:54,"W
        18
        G 30",10.0,Overcast,OVC075,57.9,36.0,,,44%,,,29.76,1007.8,,,,2024-11-09 09:19:00,1900-01-08 17:54:00
8,18:54,"NW
        14
        G 31",10.0,Overcast,OVC070,57.9,36.0,64.9,57.9,44%,,,29.79,1008.7,,,,2024-11-09 09:19:00,1900-01-08 18:54:00
8,19:54,"NW
        13",10.0,Overcast,BKN048 OVC055,52.0,42.1,,,69%,,,29.83,1010.1,,,,2024-11-09 09:19:00,1900-01-08 19:54:00
8,20:54,"N
        23
        G 39",9.0,Light Rain and Breezy,FEW041 SCT048 OVC090,52.0,39.9,,,64%,,,29.88,1011.7,,,,2024-11-09 09:19:00,1900-01-08 20:54:00
8,21:54,"NW
        17
        G 33",10.0,Mostly Cloudy,FEW045 BKN100,48.0,35.1,,,61%,42.0,,29.9,1012.4,0.01,0.01,,2024-11-09 09:19:00,1900-01-08 21:54:00
8,22:54,"NW
        17
        G 25",10.0,A Few Clouds,FEW050 FEW090,46.9,30.9,,,54%,41.0,,29.91,1012.7,,,,2024-11-09 09:19:00,1900-01-08 22:54:00
8,23:54,"NW
        13
        G 25",10.0,A Few Clouds,FEW100,46.0,26.1,,,46%,41.0,,29.94,1013.9,,,,2024-11-09 09:19:00,1900-01-08 23:54:00
9,00:54,"NW
        14
        G 23",10.0,Partly Cloudy,FEW070 SCT100,46.0,23.0,57.9,45.0,40%,40.0,,29.97,1014.9,,,0.01,2024-11-09 09:19:00,1900-01-09 00:54:00
9,01:54,"NW
        20
        G 28",10.0,A Few Clouds,FEW090,45.0,21.9,,,40%,38.0,,30.0,1015.9,,,,2024-11-09 09:19:00,1900-01-09 01:54:00
9,02:54,"NW
        17
        G 28",10.0,A Few Clouds,FEW065,44.1,21.9,,,41%,37.0,,30.01,1016.3,,,,2024-11-09 09:19:00,1900-01-09 02:54:00
9,03:54,"NW
        20
        G 32",10.0,A Few Clouds,FEW065,44.1,21.9,,,41%,37.0,,30.05,1017.3,,,,2024-11-10 09:19:15,1900-01-09 03:54:00
9,04:54,"NW
        22
        G 32",10.0,Fair and Breezy,CLR,43.0,21.9,,,43%,35.0,,30.07,1018.3,,,,2024-11-10 09:19:15,1900-01-09 04:54:00
9,05:54,"NW
        18
        G 31",10.0,A Few Clouds,FEW025,43.0,21.0,,,42%,35.0,,30.1,1019.3,,,,2024-11-10 09:19:15,1900-01-09 05:54:00
9,06:54,"NW
        14
        G 28",10.0,A Few Clouds,FEW025,43.0,21.0,46.0,43.0,42%,37.0,,30.15,1020.9,,,,2024-11-10 09:19:15,1900-01-09 06:54:00
9,07:54,"NW
        21
        G 31",10.0,A Few Clouds and Breezy,FEW025,44.1,19.9,,,38%,36.0,,30.18,1021.9,,,,2024-11-10 09:19:15,1900-01-09 07:54:00
9,08:54,"NW
        17
        G 29",10.0,A Few Clouds,FEW025,45.0,19.0,,,35%,38.0,,30.2,1022.6,,,,2024-11-10 09:19:15,1900-01-09 08:54:00
9,09:54,"NW
        16
        G 26",10.0,A Few Clouds,FEW025,46.9,19.9,,,34%,41.0,,30.21,1022.9,,,,2024-11-10 09:19:15,1900-01-09 09:54:00
9,10:54,"NW
        14
        G 21",10.0,A Few Clouds,FEW025,48.9,19.0,,,31%,44.0,,30.22,1023.1,,,,2024-11-10 09:19:15,1900-01-09 10:54:00
9,11:54,"NW
        17
        G 30",10.0,A Few Clouds,FEW025,50.0,17.1,,,27%,45.0,,30.21,1022.7,,,,2024-11-10 09:19:15,1900-01-09 11:54:00
9,12:54,"NW
        15
        G 26",10.0,A Few Clouds,FEW028,51.1,17.1,52.0,43.0,26%,,,30.21,1022.8,,,,2024-11-10 09:19:15,1900-01-09 12:54:00
9,13:54,"NW
        16
        G 24",10.0,Fair,CLR,52.0,16.0,,,24%,,,30.22,1023.1,,,,2024-11-10 09:19:15,1900-01-09 13:54:00
9,14:54,"NW
        18",10.0,Fair,CLR,52.0,15.1,,,23%,,,30.24,1024.0,,,,2024-11-10 09:19:15,1900-01-09 14:54:00
9,15:54,"NW
        14",10.0,Fair,CLR,51.1,15.1,,,24%,,,30.27,1025.0,,,,2024-11-10 09:19:15,1900-01-09 15:54:00
9,16:54,"NW
        13",10.0,Fair,CLR,48.9,16.0,,,27%,44.0,,30.3,1025.8,,,,2024-11-10 09:19:15,1900-01-09 16:54:00
9,17:54,"N
        9",10.0,Fair,CLR,48.0,16.0,,,28%,44.0,,30.32,1026.8,,,,2024-11-10 09:19:15,1900-01-09 17:54:00
9,18:54,"NW
        9",10.0,Fair,CLR,46.9,16.0,52.0,46.9,29%,43.0,,30.34,1027.3,,,,2024-11-10 09:19:15,1900-01-09 18:54:00
9,19:54,"NW
        10",10.0,Fair,CLR,46.0,17.1,,,31%,42.0,,30.36,1028.0,,,,2024-11-10 09:19:15,1900-01-09 19:54:00
9,20:54,"NW
        9
        G 20",10.0,Fair,CLR,45.0,18.0,,,34%,41.0,,30.38,1028.6,,,,2024-11-10 09:19:15,1900-01-09 20:54:00
9,21:54,"NW
        10",10.0,Fair,CLR,43.0,18.0,,,37%,38.0,,30.39,1029.1,,,,2024-11-10 09:19:15,1900-01-09 21:54:00
9,22:54,"NW
        8",10.0,Fair,CLR,42.1,18.0,,,38%,38.0,,30.38,1028.8,,,,2024-11-10 09:19:15,1900-01-09 22:54:00
9,23:54,"N
        5",10.0,Fair,CLR,39.9,19.0,,,43%,37.0,,30.38,1028.5,,,,2024-11-10 09:19:15,1900-01-09 23:54:00
